{"type":"FeatureCollection","features":[{"type":"Feature","properties":{"name":"Ballard","tone":"moss","label":[-122.3967,47.67511]},"geometry":{"type":"Polygon","coordinates":[[[-122.40985,47.67587],[-122.40902,47.67545],[-122.40895,47.67525],[-122.40833,47.67499],[-122.40831,47.67457],[-122.40865,47.67436],[-122.4081,47.67427],[-122.40808,47.67407],[-122.40829,47.67395],[-122.40828,47.67383],[-122.40778,47.6737],[-122.40782,47.67325],[-122.40761,47.67297],[-122.40701,47.67292],[-122.40692,47.6724],[-122.40642,47.67236],[-122.40622,47.67219],[-122.40619,47.67145],[-122.4058,47.67087],[-122.40582,47.6707],[-122.40508,47.67012],[-122.40434,47.66882],[-122.40362,47.66844],[-122.40349,47.66824],[-122.40299,47.66815],[-122.40233,47.66768],[-122.3998,47.66668],[-122.39973,47.66651],[-122.39359,47.66493],[-122.39108,47.66464],[-122.39358,47.66499],[-122.39403,47.66511],[-122.39414,47.66527],[-122.39487,47.66535],[-122.39571,47.66556],[-122.39578,47.66567],[-122.39543,47.66624],[-122.39484,47.66635],[-122.39471,47.66654],[-122.39375,47.66655],[-122.39374,47.66738],[-122.39358,47.66754],[-122.39328,47.6675],[-122.39321,47.66737],[-122.39219,47.66739],[-122.39207,47.66712],[-122.39186,47.66709],[-122.39144,47.66709],[-122.39137,47.66729],[-122.39077,47.66765],[-122.38975,47.66742],[-122.38927,47.66745],[-122.38916,47.66736],[-122.38916,47.66713],[-122.38892,47.66726],[-122.38789,47.66696],[-122.38775,47.66679],[-122.38796,47.66653],[-122.3879,47.66646],[-122.38564,47.66478],[-122.38508,47.66473],[-122.38494,47.6646],[-122.385,47.6645],[-122.38473,47.66426],[-122.38407,47.66457],[-122.38293,47.66373],[-122.38235,47.66392],[-122.38206,47.66354],[-122.38234,47.66306],[-122.38071,47.66188],[-122.38068,47.66167],[-122.38022,47.66149],[-122.38012,47.66133],[-122.37788,47.6607],[-122.37748,47.66115],[-122.37726,47.66109],[-122.37722,47.66088],[-122.3764,47.66088],[-122.37621,47.66099],[-122.3762,47.67583],[-122.37556,47.67593],[-122.36604,47.676],[-122.36599,47.69064],[-122.39827,47.69057],[-122.39849,47.69077],[-122.39855,47.69195],[-122.39928,47.69356],[-122.39956,47.69453],[-122.39991,47.69504],[-122.40025,47.69529],[-122.40071,47.69541],[-122.40223,47.69529],[-122.40239,47.69537],[-122.40264,47.69602],[-122.40201,47.69768],[-122.40209,47.69768],[-122.40296,47.6971],[-122.40351,47.69649],[-122.40378,47.69602],[-122.40417,47.69492],[-122.4055,47.69403],[-122.4059,47.69351],[-122.40587,47.69302],[-122.40569,47.69267],[-122.40413,47.69126],[-122.4032,47.6898],[-122.40344,47.68822],[-122.40365,47.68745],[-122.40382,47.68725],[-122.40345,47.68699],[-122.40342,47.68687],[-122.40348,47.6867],[-122.40382,47.68664],[-122.40386,47.68585],[-122.40325,47.68559],[-122.40358,47.68336],[-122.40529,47.68056],[-122.40571,47.68047],[-122.40594,47.68024],[-122.40618,47.67968],[-122.40772,47.67709],[-122.40837,47.67703],[-122.40838,47.67674],[-122.40847,47.67667],[-122.40977,47.67664],[-122.40985,47.67587]]]}},{"type":"Feature","properties":{"name":"Greenwood","tone":"ochre","label":[-122.37132,47.69534]},"geometry":{"type":"Polygon","coordinates":[[[-122.40264,47.69601],[-122.40235,47.69527],[-122.40072,47.69542],[-122.40024,47.69529],[-122.39989,47.69502],[-122.39956,47.69452],[-122.39928,47.69357],[-122.39855,47.69196],[-122.39849,47.69074],[-122.39829,47.69057],[-122.366,47.69058],[-122.36605,47.67607],[-122.36744,47.67595],[-122.37632,47.67591],[-122.3762,47.67571],[-122.37622,47.66108],[-122.37613,47.66085],[-122.37599,47.66089],[-122.37602,47.66106],[-122.37586,47.66114],[-122.37532,47.66091],[-122.37538,47.6606],[-122.3738,47.6606],[-122.37354,47.66075],[-122.37233,47.66062],[-122.37226,47.66042],[-122.37134,47.65976],[-122.37098,47.65982],[-122.37006,47.65885],[-122.36903,47.65829],[-122.36904,47.65814],[-122.36824,47.65756],[-122.36742,47.65727],[-122.36693,47.65682],[-122.36697,47.65664],[-122.36678,47.65652],[-122.36503,47.65776],[-122.36503,47.65814],[-122.3661,47.65935],[-122.36609,47.66144],[-122.36078,47.66146],[-122.36079,47.66635],[-122.36069,47.66645],[-122.36048,47.6664],[-122.35949,47.66489],[-122.35769,47.6633],[-122.35629,47.66243],[-122.35542,47.66214],[-122.3554,47.66492],[-122.35527,47.66502],[-122.34019,47.66503],[-122.34008,47.66573],[-122.34,47.66946],[-122.34059,47.66993],[-122.34251,47.67054],[-122.34328,47.67103],[-122.34367,47.67153],[-122.34385,47.67234],[-122.34419,47.67295],[-122.34488,47.67368],[-122.34621,47.67468],[-122.34662,47.67524],[-122.34684,47.67583],[-122.34669,47.67633],[-122.34575,47.67754],[-122.3455,47.6783],[-122.34526,47.68011],[-122.34448,47.68138],[-122.34455,47.6945],[-122.34509,47.73412],[-122.3746,47.73416],[-122.37363,47.73184],[-122.37317,47.72976],[-122.37314,47.72866],[-122.37342,47.72661],[-122.37377,47.72571],[-122.37549,47.7234],[-122.37606,47.72204],[-122.3762,47.72137],[-122.37619,47.7208],[-122.37569,47.71865],[-122.37591,47.71739],[-122.37659,47.71602],[-122.37727,47.71505],[-122.37897,47.71311],[-122.37992,47.71227],[-122.37977,47.71192],[-122.37998,47.71107],[-122.38002,47.70986],[-122.38017,47.7092],[-122.38056,47.70846],[-122.38182,47.70726],[-122.38418,47.70551],[-122.38613,47.70422],[-122.38793,47.70325],[-122.38979,47.70245],[-122.39696,47.69994],[-122.4011,47.69829],[-122.40209,47.69768],[-122.40205,47.69757],[-122.40264,47.69601]]]}},{"type":"Feature","properties":{"name":"Green Lake","tone":"moss","label":[-122.32031,47.67424]},"geometry":{"type":"Polygon","coordinates":[[[-122.34684,47.67584],[-122.34662,47.67524],[-122.34621,47.67468],[-122.34487,47.67368],[-122.34419,47.67295],[-122.34385,47.67234],[-122.34367,47.67153],[-122.34328,47.67103],[-122.3425,47.67053],[-122.34059,47.66993],[-122.34,47.66947],[-122.33995,47.67017],[-122.33797,47.67019],[-122.33795,47.67058],[-122.33735,47.67108],[-122.33712,47.67106],[-122.33699,47.67072],[-122.33617,47.67108],[-122.33375,47.67291],[-122.33355,47.67283],[-122.33354,47.67231],[-122.32159,47.67223],[-122.32105,47.67409],[-122.32089,47.67417],[-122.31929,47.67254],[-122.31901,47.67239],[-122.31302,47.67098],[-122.31298,47.67123],[-122.31204,47.67191],[-122.31189,47.67172],[-122.3066,47.67075],[-122.304,47.67009],[-122.3038,47.66987],[-122.30378,47.66796],[-122.30076,47.66798],[-122.3006,47.66789],[-122.30058,47.66588],[-122.30089,47.6644],[-122.3009,47.66125],[-122.28879,47.66114],[-122.28712,47.66138],[-122.28574,47.66207],[-122.28001,47.66758],[-122.27943,47.66796],[-122.27953,47.67578],[-122.28486,47.67583],[-122.28515,47.68304],[-122.30067,47.68306],[-122.30082,47.6865],[-122.30162,47.68782],[-122.30167,47.68826],[-122.30142,47.68962],[-122.30165,47.69026],[-122.32869,47.69045],[-122.32908,47.69015],[-122.33019,47.69044],[-122.34451,47.69056],[-122.34448,47.68137],[-122.34526,47.68011],[-122.34549,47.67831],[-122.34575,47.67754],[-122.34669,47.67633],[-122.34684,47.67584]]]}},{"type":"Feature","properties":{"name":"Northgate","tone":"rust","label":[-122.31719,47.7024]},"geometry":{"type":"MultiPolygon","coordinates":[[[[-122.34509,47.73412],[-122.34451,47.69056],[-122.33019,47.69044],[-122.3296,47.69035],[-122.32906,47.6901],[-122.32861,47.69044],[-122.30816,47.69031],[-122.30623,47.69167],[-122.30564,47.69244],[-122.30544,47.69313],[-122.30574,47.6963],[-122.30562,47.69713],[-122.30508,47.69817],[-122.30331,47.70026],[-122.31204,47.70033],[-122.3122,47.70044],[-122.31242,47.70511],[-122.31242,47.71189],[-122.31264,47.71919],[-122.31274,47.73395],[-122.33427,47.73413],[-122.34509,47.73412]]],[[[-122.32909,47.69011],[-122.32909,47.69011],[-122.32909,47.69011],[-122.32909,47.69011]]]]}},{"type":"Feature","properties":{"name":"Lake City","tone":"moss","label":[-122.27969,47.70881]},"geometry":{"type":"Polygon","coordinates":[[[-122.31274,47.73394],[-122.31264,47.71919],[-122.31242,47.71189],[-122.31242,47.70511],[-122.3122,47.70033],[-122.30348,47.70024],[-122.30345,47.7001],[-122.30507,47.69818],[-122.30545,47.69756],[-122.28011,47.69737],[-122.28002,47.69727],[-122.27997,47.69293],[-122.27918,47.69226],[-122.27866,47.69163],[-122.27813,47.69159],[-122.27659,47.69227],[-122.27589,47.69229],[-122.27534,47.69213],[-122.27363,47.69246],[-122.27298,47.6928],[-122.27213,47.69265],[-122.27174,47.69277],[-122.27063,47.69235],[-122.26881,47.69122],[-122.26799,47.69033],[-122.26678,47.69034],[-122.26734,47.6908],[-122.2676,47.69121],[-122.26765,47.69171],[-122.268,47.69209],[-122.26977,47.69318],[-122.27119,47.6939],[-122.27143,47.69393],[-122.27173,47.69419],[-122.27185,47.69469],[-122.27171,47.6949],[-122.27141,47.69505],[-122.27173,47.69559],[-122.27211,47.69583],[-122.27228,47.69638],[-122.27254,47.69659],[-122.27266,47.69688],[-122.27262,47.69787],[-122.27244,47.6985],[-122.27253,47.69954],[-122.27287,47.70061],[-122.27298,47.7014],[-122.2733,47.70244],[-122.27378,47.70319],[-122.27396,47.70326],[-122.2748,47.7052],[-122.27495,47.70611],[-122.2749,47.70719],[-122.27634,47.71084],[-122.27653,47.71189],[-122.27642,47.71225],[-122.27716,47.71421],[-122.27718,47.71463],[-122.27793,47.71633],[-122.27877,47.71906],[-122.27924,47.71959],[-122.28016,47.71977],[-122.28043,47.71997],[-122.28074,47.72073],[-122.28095,47.72188],[-122.28087,47.72297],[-122.28031,47.72443],[-122.2802,47.72515],[-122.28,47.72524],[-122.28,47.72546],[-122.28032,47.72659],[-122.28126,47.72822],[-122.28133,47.72862],[-122.28183,47.72946],[-122.28209,47.72959],[-122.28207,47.72979],[-122.28183,47.72985],[-122.28168,47.73008],[-122.28157,47.7306],[-122.28131,47.73106],[-122.2813,47.73124],[-122.28154,47.7316],[-122.28194,47.73176],[-122.28231,47.73218],[-122.2827,47.73232],[-122.28345,47.73302],[-122.28392,47.73321],[-122.28402,47.73358],[-122.28419,47.73374],[-122.31274,47.73394]]]}},{"type":"Feature","properties":{"name":"Northeast Seattle","tone":"ochre","label":[-122.26957,47.67263]},"geometry":{"type":"Polygon","coordinates":[[[-122.30815,47.69031],[-122.30165,47.69021],[-122.30142,47.68962],[-122.30167,47.68826],[-122.30162,47.68782],[-122.30082,47.6865],[-122.30074,47.68304],[-122.28521,47.68302],[-122.28506,47.68194],[-122.28486,47.67577],[-122.27954,47.67571],[-122.27944,47.66798],[-122.28001,47.66758],[-122.28598,47.66191],[-122.28695,47.66144],[-122.28771,47.66124],[-122.28872,47.66114],[-122.29014,47.66117],[-122.29018,47.65844],[-122.28677,47.65836],[-122.28672,47.65554],[-122.28646,47.65503],[-122.28648,47.65485],[-122.28548,47.65487],[-122.28525,47.65469],[-122.285,47.65466],[-122.28363,47.65474],[-122.28226,47.6538],[-122.281,47.65335],[-122.28097,47.65323],[-122.28125,47.65296],[-122.28136,47.65262],[-122.2811,47.65196],[-122.28047,47.65165],[-122.27988,47.6511],[-122.27943,47.65097],[-122.27909,47.65072],[-122.27889,47.64989],[-122.27847,47.64963],[-122.27821,47.64912],[-122.2785,47.64891],[-122.27847,47.64879],[-122.27802,47.6484],[-122.27725,47.64801],[-122.27613,47.64821],[-122.27546,47.64873],[-122.27523,47.64916],[-122.27533,47.64926],[-122.27518,47.64945],[-122.27527,47.65026],[-122.27611,47.6509],[-122.27639,47.6519],[-122.27653,47.65202],[-122.27626,47.65256],[-122.2756,47.65312],[-122.2745,47.65365],[-122.27432,47.65365],[-122.27404,47.65402],[-122.27366,47.65412],[-122.27362,47.65433],[-122.27282,47.65504],[-122.27261,47.65536],[-122.27189,47.65588],[-122.27003,47.65686],[-122.26965,47.65695],[-122.26888,47.65788],[-122.26855,47.65807],[-122.26761,47.66072],[-122.26756,47.66179],[-122.26724,47.66297],[-122.26741,47.6641],[-122.26731,47.66443],[-122.26591,47.66506],[-122.26173,47.66595],[-122.2615,47.66616],[-122.25939,47.667],[-122.25722,47.66856],[-122.25645,47.66887],[-122.25653,47.66905],[-122.25508,47.67022],[-122.25466,47.67044],[-122.25394,47.67108],[-122.25288,47.67167],[-122.25269,47.67202],[-122.25223,47.67221],[-122.25232,47.67234],[-122.25226,47.67253],[-122.25185,47.67294],[-122.25177,47.67315],[-122.25185,47.67343],[-122.25169,47.67372],[-122.25146,47.67391],[-122.25077,47.67415],[-122.25045,47.67445],[-122.25043,47.67485],[-122.2499,47.67566],[-122.24968,47.67645],[-122.24992,47.67675],[-122.24985,47.67691],[-122.24934,47.67711],[-122.24905,47.67765],[-122.24836,47.67831],[-122.24819,47.67866],[-122.24768,47.67897],[-122.24764,47.67943],[-122.24726,47.67995],[-122.24609,47.68071],[-122.2459,47.68098],[-122.24564,47.6819],[-122.24571,47.68236],[-122.24562,47.68271],[-122.2458,47.6832],[-122.24615,47.68364],[-122.24659,47.68393],[-122.24668,47.68425],[-122.24706,47.68467],[-122.24762,47.68494],[-122.24786,47.68542],[-122.24992,47.68606],[-122.25079,47.68648],[-122.25176,47.68673],[-122.25194,47.6869],[-122.25273,47.68701],[-122.25365,47.68739],[-122.2552,47.68779],[-122.25572,47.68815],[-122.25617,47.68821],[-122.25688,47.68791],[-122.25924,47.68759],[-122.26071,47.68758],[-122.26146,47.68765],[-122.26176,47.68781],[-122.26291,47.68772],[-122.26459,47.68911],[-122.26463,47.68974],[-122.26505,47.69004],[-122.26518,47.68997],[-122.26488,47.68971],[-122.26489,47.68936],[-122.26505,47.68927],[-122.26635,47.68987],[-122.26678,47.69034],[-122.26797,47.69035],[-122.2688,47.69121],[-122.27023,47.69212],[-122.27118,47.69261],[-122.27186,47.69281],[-122.27211,47.69265],[-122.27299,47.6928],[-122.27363,47.69246],[-122.27527,47.69215],[-122.27598,47.6923],[-122.27663,47.69227],[-122.2781,47.6916],[-122.27863,47.69162],[-122.27997,47.69294],[-122.28002,47.69737],[-122.30545,47.69756],[-122.30573,47.69671],[-122.30574,47.6963],[-122.30544,47.69315],[-122.30551,47.69272],[-122.30623,47.69168],[-122.30815,47.69031]]]}},{"type":"Feature","properties":{"name":"University District","tone":"olive","label":[-122.30313,47.65589]},"geometry":{"type":"Polygon","coordinates":[[[-122.32248,47.65369],[-122.32192,47.65378],[-122.32104,47.65371],[-122.32103,47.65425],[-122.3208,47.65433],[-122.32022,47.65423],[-122.31949,47.65388],[-122.3191,47.65388],[-122.31872,47.65359],[-122.31847,47.65363],[-122.3178,47.65308],[-122.3175,47.65261],[-122.31753,47.65242],[-122.31731,47.65222],[-122.31715,47.65213],[-122.31681,47.65225],[-122.31636,47.65191],[-122.31642,47.65163],[-122.31621,47.65155],[-122.3161,47.65173],[-122.31553,47.65174],[-122.31405,47.65135],[-122.31304,47.65023],[-122.31348,47.64986],[-122.31267,47.64939],[-122.31224,47.64957],[-122.31189,47.64943],[-122.3113,47.64908],[-122.31122,47.64888],[-122.31089,47.64868],[-122.31065,47.64868],[-122.31025,47.64847],[-122.31021,47.64826],[-122.31003,47.64811],[-122.30926,47.64786],[-122.30679,47.6475],[-122.30001,47.64753],[-122.29954,47.64768],[-122.29966,47.6482],[-122.2994,47.64833],[-122.29911,47.64885],[-122.29849,47.65047],[-122.29855,47.65059],[-122.29794,47.6507],[-122.29776,47.65135],[-122.29777,47.65176],[-122.29811,47.65203],[-122.29941,47.65247],[-122.29932,47.65312],[-122.29783,47.65335],[-122.29773,47.65346],[-122.29834,47.65344],[-122.29853,47.6536],[-122.29769,47.65383],[-122.29744,47.65441],[-122.29718,47.65467],[-122.29683,47.65437],[-122.29657,47.6544],[-122.2963,47.65422],[-122.29654,47.65398],[-122.29696,47.65399],[-122.29696,47.6538],[-122.29658,47.65385],[-122.29616,47.65367],[-122.29377,47.6538],[-122.29297,47.65389],[-122.2926,47.65405],[-122.29129,47.65412],[-122.29097,47.65395],[-122.29058,47.65423],[-122.29036,47.65495],[-122.29001,47.65502],[-122.28936,47.65538],[-122.28854,47.65539],[-122.28792,47.65567],[-122.28791,47.65596],[-122.28776,47.65614],[-122.28789,47.65646],[-122.28826,47.65613],[-122.28864,47.65609],[-122.28877,47.65617],[-122.28847,47.65687],[-122.28825,47.65703],[-122.28753,47.65669],[-122.28753,47.6563],[-122.28731,47.65605],[-122.28697,47.65599],[-122.28672,47.65557],[-122.28672,47.65838],[-122.29013,47.65846],[-122.29014,47.66117],[-122.30083,47.66126],[-122.3009,47.66135],[-122.30089,47.6644],[-122.30058,47.66588],[-122.3006,47.66798],[-122.30371,47.66798],[-122.30386,47.6694],[-122.3038,47.66987],[-122.30395,47.67007],[-122.3066,47.67074],[-122.31178,47.6717],[-122.3119,47.67178],[-122.3119,47.67209],[-122.3132,47.67102],[-122.31902,47.67239],[-122.31933,47.67258],[-122.32097,47.67436],[-122.32161,47.67215],[-122.32192,47.67031],[-122.322,47.66332],[-122.32237,47.65804],[-122.32248,47.65369]],[[-122.29044,47.65623],[-122.2899,47.65635],[-122.28968,47.65623],[-122.29033,47.6559],[-122.29069,47.65611],[-122.29062,47.65622],[-122.29044,47.65623]]]}},{"type":"Feature","properties":{"name":"Wallingford","tone":"rust","label":[-122.3352,47.65342]},"geometry":{"type":"Polygon","coordinates":[[[-122.34732,47.66138],[-122.3423,47.66137],[-122.34215,47.66128],[-122.3428,47.64803],[-122.34237,47.64796],[-122.34226,47.64781],[-122.34167,47.64779],[-122.34145,47.64757],[-122.34144,47.64741],[-122.34115,47.64734],[-122.34109,47.64706],[-122.34052,47.64701],[-122.34011,47.64736],[-122.33981,47.64737],[-122.33959,47.64712],[-122.34033,47.64654],[-122.34022,47.64647],[-122.33982,47.64671],[-122.33944,47.64655],[-122.33908,47.64665],[-122.33899,47.64652],[-122.33913,47.64638],[-122.33876,47.64644],[-122.33802,47.64606],[-122.33788,47.6458],[-122.33736,47.64536],[-122.33731,47.64516],[-122.33661,47.64476],[-122.33579,47.64446],[-122.33407,47.64445],[-122.33382,47.64467],[-122.33323,47.64482],[-122.33294,47.64525],[-122.3327,47.64611],[-122.3329,47.64692],[-122.33258,47.64695],[-122.3311,47.64813],[-122.33158,47.64906],[-122.33138,47.64936],[-122.33102,47.64935],[-122.33057,47.64952],[-122.33072,47.65015],[-122.33026,47.65067],[-122.32993,47.65091],[-122.32949,47.65101],[-122.32943,47.6513],[-122.32923,47.6514],[-122.32875,47.65152],[-122.32853,47.65133],[-122.32677,47.65319],[-122.32456,47.65346],[-122.32412,47.65338],[-122.32248,47.65369],[-122.32237,47.65804],[-122.322,47.66332],[-122.32192,47.67031],[-122.32159,47.67223],[-122.3334,47.67232],[-122.33354,47.6724],[-122.33355,47.6731],[-122.33617,47.67108],[-122.33692,47.67079],[-122.33717,47.67124],[-122.33796,47.67057],[-122.33803,47.6702],[-122.33999,47.6702],[-122.34008,47.66573],[-122.34023,47.66506],[-122.34729,47.665],[-122.34732,47.66138]]]}},{"type":"Feature","properties":{"name":"Fremont","tone":"moss","label":[-122.35155,47.65409]},"geometry":{"type":"Polygon","coordinates":[[[-122.36678,47.65652],[-122.36091,47.65327],[-122.35856,47.65208],[-122.35006,47.64821],[-122.34975,47.64795],[-122.3483,47.64747],[-122.34762,47.64752],[-122.34708,47.64774],[-122.34699,47.64849],[-122.34669,47.64862],[-122.34631,47.64857],[-122.34608,47.64835],[-122.34554,47.64835],[-122.34518,47.64821],[-122.34469,47.64833],[-122.34425,47.64828],[-122.34412,47.64814],[-122.34378,47.64807],[-122.34364,47.64753],[-122.34344,47.6475],[-122.34317,47.64751],[-122.34306,47.64798],[-122.3428,47.64803],[-122.34214,47.66137],[-122.34728,47.66141],[-122.34729,47.665],[-122.3554,47.66503],[-122.35542,47.66229],[-122.35561,47.66219],[-122.35629,47.66243],[-122.35737,47.66306],[-122.35948,47.66488],[-122.36079,47.6669],[-122.36079,47.66153],[-122.36614,47.66147],[-122.3661,47.65935],[-122.36504,47.65814],[-122.36503,47.6578],[-122.36678,47.65652]]]}},{"type":"Feature","properties":{"name":"Magnolia","tone":"ochre","label":[-122.40959,47.65171]},"geometry":{"type":"Polygon","coordinates":[[[-122.43594,47.66195],[-122.42647,47.65839],[-122.42603,47.65778],[-122.42526,47.65738],[-122.42475,47.65697],[-122.42357,47.65555],[-122.42063,47.65344],[-122.42017,47.65292],[-122.42013,47.65255],[-122.41948,47.65204],[-122.41946,47.65181],[-122.41892,47.65134],[-122.41888,47.65086],[-122.41867,47.65034],[-122.41833,47.65009],[-122.41745,47.64883],[-122.41735,47.6484],[-122.41744,47.6472],[-122.41733,47.64666],[-122.41744,47.64637],[-122.41739,47.6457],[-122.41773,47.64495],[-122.41751,47.64396],[-122.41738,47.64385],[-122.41726,47.64332],[-122.41733,47.6432],[-122.41703,47.6429],[-122.41623,47.64158],[-122.41497,47.64036],[-122.41415,47.64003],[-122.41272,47.63908],[-122.41271,47.63887],[-122.41241,47.63859],[-122.41176,47.63842],[-122.40918,47.63672],[-122.40828,47.63634],[-122.40645,47.63522],[-122.40207,47.6335],[-122.40193,47.63341],[-122.40192,47.63326],[-122.40161,47.63329],[-122.40036,47.63287],[-122.39898,47.63224],[-122.39743,47.63194],[-122.3966,47.63163],[-122.39577,47.63151],[-122.39563,47.6314],[-122.39545,47.63082],[-122.39489,47.63046],[-122.39363,47.63042],[-122.39181,47.63],[-122.39181,47.63401],[-122.39003,47.63561],[-122.3823,47.64594],[-122.38202,47.64649],[-122.38199,47.65055],[-122.38538,47.65499],[-122.39138,47.65977],[-122.39247,47.66046],[-122.3943,47.66132],[-122.39605,47.66133],[-122.39824,47.66253],[-122.39832,47.66495],[-122.39904,47.66509],[-122.40019,47.66551],[-122.40067,47.66583],[-122.40193,47.66622],[-122.40498,47.66622],[-122.40555,47.66647],[-122.4068,47.66654],[-122.4078,47.66707],[-122.40818,47.66752],[-122.40823,47.66779],[-122.4079,47.66875],[-122.40781,47.66949],[-122.40838,47.67031],[-122.40869,47.67128],[-122.40896,47.67151],[-122.40965,47.67159],[-122.41143,47.67148],[-122.41579,47.67053],[-122.41749,47.66975],[-122.41777,47.66943],[-122.41852,47.66902],[-122.42164,47.66778],[-122.42269,47.66748],[-122.42513,47.66522],[-122.43114,47.66276],[-122.43438,47.66238],[-122.43549,47.66216],[-122.43594,47.66195]]]}},{"type":"Feature","properties":{"name":"Queen Anne","tone":"moss","label":[-122.35908,47.64755]},"geometry":{"type":"Polygon","coordinates":[[[-122.37636,47.6483],[-122.37634,47.64658],[-122.37616,47.64476],[-122.37617,47.63329],[-122.37598,47.63267],[-122.37559,47.6322],[-122.37232,47.62961],[-122.36539,47.62437],[-122.35844,47.61861],[-122.35034,47.61858],[-122.34363,47.62377],[-122.34345,47.63555],[-122.34364,47.63632],[-122.34428,47.63734],[-122.34191,47.63799],[-122.34025,47.63802],[-122.34027,47.63847],[-122.34063,47.63911],[-122.34092,47.63929],[-122.34225,47.6413],[-122.34218,47.64144],[-122.34227,47.6416],[-122.34217,47.64172],[-122.34228,47.64185],[-122.34261,47.64187],[-122.34292,47.6422],[-122.34293,47.64248],[-122.3425,47.64267],[-122.34245,47.64281],[-122.34262,47.64302],[-122.34252,47.64315],[-122.34259,47.64325],[-122.3429,47.64316],[-122.34357,47.64322],[-122.34364,47.64336],[-122.34353,47.64352],[-122.344,47.64377],[-122.34419,47.64408],[-122.34475,47.64441],[-122.34494,47.64466],[-122.34534,47.64485],[-122.34588,47.64483],[-122.34849,47.64593],[-122.34919,47.64686],[-122.35007,47.64743],[-122.35053,47.64752],[-122.35574,47.64984],[-122.36123,47.65253],[-122.36194,47.65262],[-122.36206,47.65248],[-122.36232,47.6525],[-122.36246,47.65239],[-122.36288,47.65247],[-122.36298,47.65258],[-122.36279,47.65301],[-122.36323,47.65311],[-122.3634,47.65287],[-122.36387,47.65278],[-122.36468,47.65277],[-122.36543,47.65305],[-122.36578,47.6533],[-122.36556,47.65365],[-122.36571,47.65374],[-122.36569,47.65386],[-122.36624,47.6541],[-122.36569,47.65477],[-122.36582,47.65477],[-122.3663,47.65428],[-122.36673,47.65441],[-122.36678,47.65452],[-122.36636,47.65515],[-122.3671,47.65432],[-122.36732,47.65431],[-122.36916,47.65534],[-122.36917,47.65546],[-122.36873,47.65577],[-122.36943,47.65564],[-122.3696,47.65569],[-122.36953,47.65596],[-122.36895,47.65646],[-122.37079,47.65755],[-122.37126,47.65771],[-122.37257,47.65768],[-122.37294,47.65781],[-122.3737,47.65779],[-122.37384,47.65712],[-122.37511,47.65713],[-122.37526,47.65722],[-122.37527,47.65773],[-122.37569,47.65775],[-122.37579,47.65792],[-122.37606,47.65792],[-122.3761,47.65606],[-122.37621,47.65595],[-122.37622,47.65164],[-122.37636,47.6483]]]}},{"type":"Feature","properties":{"name":"Interbay","tone":"rust","label":[-122.38172,47.64519]},"geometry":{"type":"Polygon","coordinates":[[[-122.39832,47.66495],[-122.39828,47.66255],[-122.39603,47.66131],[-122.39426,47.6613],[-122.39248,47.66047],[-122.39138,47.65976],[-122.38539,47.65499],[-122.38199,47.65052],[-122.38196,47.64682],[-122.38219,47.64609],[-122.39003,47.63561],[-122.39185,47.63394],[-122.39181,47.63],[-122.39094,47.63005],[-122.38996,47.63049],[-122.38917,47.63067],[-122.38813,47.63135],[-122.38677,47.63154],[-122.38548,47.63157],[-122.38541,47.633],[-122.38483,47.63323],[-122.38379,47.63322],[-122.3837,47.63312],[-122.38365,47.6264],[-122.38215,47.6264],[-122.38218,47.63152],[-122.38244,47.63158],[-122.38249,47.6317],[-122.38226,47.6318],[-122.38116,47.63183],[-122.3806,47.63181],[-122.38049,47.63171],[-122.38056,47.63157],[-122.38078,47.63154],[-122.38076,47.62644],[-122.37951,47.62638],[-122.3795,47.63201],[-122.37931,47.63218],[-122.3795,47.63238],[-122.37979,47.63245],[-122.37981,47.6329],[-122.37971,47.63303],[-122.37915,47.6331],[-122.37846,47.6326],[-122.37796,47.63146],[-122.37808,47.63115],[-122.3779,47.63095],[-122.37797,47.6278],[-122.37784,47.62678],[-122.37665,47.62673],[-122.37563,47.62641],[-122.3739,47.62619],[-122.36918,47.62441],[-122.36874,47.62417],[-122.36455,47.62093],[-122.36405,47.62068],[-122.36321,47.62048],[-122.36279,47.6202],[-122.36223,47.6195],[-122.36154,47.61891],[-122.36046,47.61858],[-122.35843,47.6186],[-122.3654,47.62437],[-122.37036,47.62807],[-122.37559,47.6322],[-122.37606,47.63282],[-122.37617,47.63329],[-122.37616,47.64476],[-122.37636,47.64741],[-122.37621,47.65595],[-122.3767,47.65614],[-122.37683,47.65591],[-122.37709,47.65593],[-122.37713,47.65686],[-122.37728,47.65686],[-122.37729,47.65604],[-122.37742,47.65594],[-122.37778,47.65602],[-122.37778,47.65685],[-122.3781,47.65685],[-122.3781,47.65598],[-122.37823,47.65588],[-122.37936,47.65587],[-122.37948,47.65594],[-122.3795,47.65614],[-122.37965,47.65614],[-122.37967,47.65593],[-122.37981,47.65587],[-122.38146,47.65589],[-122.3816,47.65614],[-122.38176,47.65614],[-122.38177,47.65595],[-122.38189,47.65589],[-122.38227,47.65589],[-122.38237,47.65599],[-122.38233,47.659],[-122.37912,47.65903],[-122.37896,47.65888],[-122.37847,47.65887],[-122.37844,47.65918],[-122.38228,47.65919],[-122.38238,47.65944],[-122.38349,47.65984],[-122.38396,47.66044],[-122.38385,47.66062],[-122.38485,47.6612],[-122.38488,47.6614],[-122.38544,47.66163],[-122.38601,47.66175],[-122.38625,47.6617],[-122.38735,47.66216],[-122.38744,47.66244],[-122.38772,47.66258],[-122.39011,47.66333],[-122.39202,47.66343],[-122.39218,47.66321],[-122.3926,47.66321],[-122.39284,47.66341],[-122.39435,47.66321],[-122.39497,47.66324],[-122.39604,47.66375],[-122.3964,47.66411],[-122.39737,47.6647],[-122.39726,47.66504],[-122.39741,47.66507],[-122.39767,47.66479],[-122.39832,47.66495]]]}},{"type":"Feature","properties":{"name":"South Lake Union","tone":"rust","label":[-122.33711,47.62805]},"geometry":{"type":"Polygon","coordinates":[[[-122.35034,47.61858],[-122.32869,47.61846],[-122.32865,47.62694],[-122.32848,47.6277],[-122.32817,47.6284],[-122.32769,47.62903],[-122.32507,47.63139],[-122.32458,47.63197],[-122.3242,47.63258],[-122.32331,47.63486],[-122.32686,47.63489],[-122.32691,47.63555],[-122.32938,47.63702],[-122.3295,47.63971],[-122.32966,47.63972],[-122.32975,47.63951],[-122.32972,47.63886],[-122.32952,47.63823],[-122.3296,47.6376],[-122.32953,47.63686],[-122.32937,47.63665],[-122.32946,47.6364],[-122.32838,47.63573],[-122.32833,47.63527],[-122.328,47.63503],[-122.32797,47.6348],[-122.32704,47.63454],[-122.32712,47.63434],[-122.32706,47.63356],[-122.32726,47.63313],[-122.32715,47.63291],[-122.32748,47.63158],[-122.32737,47.6314],[-122.32828,47.63068],[-122.32911,47.63111],[-122.32958,47.63098],[-122.33045,47.63005],[-122.33118,47.62971],[-122.33123,47.62954],[-122.33194,47.62935],[-122.33207,47.62829],[-122.33261,47.62785],[-122.33288,47.62787],[-122.33292,47.62809],[-122.33338,47.62813],[-122.33343,47.62837],[-122.33363,47.62853],[-122.33418,47.62833],[-122.33416,47.62729],[-122.33426,47.62712],[-122.33445,47.62696],[-122.33497,47.62691],[-122.33562,47.62656],[-122.33604,47.62653],[-122.33629,47.62686],[-122.33614,47.62728],[-122.33614,47.62803],[-122.33711,47.62805],[-122.33725,47.62789],[-122.33806,47.62789],[-122.33803,47.62635],[-122.33823,47.62618],[-122.33853,47.62633],[-122.33889,47.62683],[-122.33873,47.62701],[-122.33877,47.62739],[-122.339,47.6275],[-122.33927,47.62798],[-122.33975,47.62848],[-122.33972,47.62862],[-122.33938,47.62879],[-122.33933,47.6292],[-122.3396,47.62965],[-122.33929,47.62989],[-122.33931,47.63009],[-122.3402,47.63014],[-122.34022,47.63087],[-122.34051,47.63096],[-122.34045,47.63226],[-122.34013,47.6331],[-122.33988,47.63333],[-122.33941,47.63338],[-122.33942,47.63457],[-122.33979,47.63459],[-122.33989,47.63469],[-122.33963,47.63523],[-122.33976,47.63585],[-122.33955,47.63595],[-122.33959,47.63623],[-122.33988,47.63637],[-122.33985,47.63708],[-122.33963,47.63719],[-122.33973,47.6376],[-122.34004,47.63793],[-122.34025,47.63802],[-122.3419,47.638],[-122.34379,47.63746],[-122.34436,47.63742],[-122.34368,47.63642],[-122.34345,47.63555],[-122.34363,47.62379],[-122.35034,47.61858]]]}},{"type":"Feature","properties":{"name":"Eastlake","tone":"ochre","label":[-122.32382,47.64547]},"geometry":{"type":"Polygon","coordinates":[[[-122.32978,47.64013],[-122.32976,47.63983],[-122.3295,47.63962],[-122.32939,47.63702],[-122.32694,47.63557],[-122.3269,47.63486],[-122.32331,47.63487],[-122.32295,47.63668],[-122.32283,47.64142],[-122.32264,47.64196],[-122.32224,47.64219],[-122.32157,47.64231],[-122.31516,47.64303],[-122.31523,47.64315],[-122.31576,47.64332],[-122.31588,47.64379],[-122.3162,47.64382],[-122.31634,47.64403],[-122.31636,47.64444],[-122.31648,47.64461],[-122.31614,47.64575],[-122.31627,47.64727],[-122.3169,47.64816],[-122.3185,47.64962],[-122.32068,47.65205],[-122.32134,47.65235],[-122.32256,47.65232],[-122.32309,47.65219],[-122.32322,47.65149],[-122.32363,47.65132],[-122.32403,47.65131],[-122.32402,47.65117],[-122.32384,47.65107],[-122.32409,47.65086],[-122.32388,47.65069],[-122.32394,47.65042],[-122.32428,47.65027],[-122.32478,47.6497],[-122.32509,47.64967],[-122.32525,47.64945],[-122.32501,47.6492],[-122.32541,47.6491],[-122.32511,47.64844],[-122.32545,47.64783],[-122.32595,47.64746],[-122.32613,47.64709],[-122.32653,47.64676],[-122.32721,47.64685],[-122.32793,47.64575],[-122.32731,47.64565],[-122.3278,47.64501],[-122.32739,47.64451],[-122.32738,47.64397],[-122.32778,47.64346],[-122.32858,47.64338],[-122.32914,47.64308],[-122.32971,47.64223],[-122.32973,47.64179],[-122.32958,47.64169],[-122.32958,47.64117],[-122.32978,47.64013]]]}},{"type":"Feature","properties":{"name":"Montlake","tone":"rust","label":[-122.29528,47.63904]},"geometry":{"type":"Polygon","coordinates":[[[-122.32287,47.63972],[-122.3223,47.63953],[-122.32145,47.63953],[-122.32132,47.63945],[-122.32134,47.63614],[-122.3212,47.6359],[-122.31358,47.63594],[-122.31358,47.63748],[-122.31469,47.63829],[-122.31468,47.63896],[-122.31419,47.63916],[-122.31285,47.63871],[-122.3119,47.63882],[-122.3113,47.63864],[-122.31079,47.63797],[-122.31115,47.63739],[-122.31113,47.6367],[-122.31093,47.63646],[-122.31047,47.63651],[-122.31013,47.63708],[-122.30956,47.63729],[-122.30944,47.63748],[-122.30927,47.63751],[-122.30857,47.63636],[-122.30858,47.63608],[-122.30878,47.6358],[-122.30874,47.63571],[-122.30829,47.63578],[-122.30786,47.63637],[-122.30761,47.63643],[-122.30707,47.63615],[-122.30661,47.63612],[-122.30656,47.63558],[-122.30641,47.63543],[-122.30608,47.63546],[-122.30561,47.63582],[-122.30475,47.63592],[-122.30382,47.63562],[-122.30189,47.63461],[-122.30125,47.63453],[-122.30012,47.63326],[-122.29964,47.63226],[-122.29775,47.6322],[-122.29743,47.63097],[-122.29643,47.62981],[-122.29584,47.62891],[-122.29534,47.62856],[-122.29396,47.62809],[-122.29327,47.62771],[-122.29301,47.62734],[-122.29284,47.62662],[-122.29251,47.6263],[-122.29242,47.62602],[-122.28508,47.63098],[-122.28142,47.63094],[-122.28132,47.63084],[-122.28133,47.62974],[-122.27996,47.62966],[-122.27996,47.62852],[-122.27833,47.62863],[-122.27833,47.62894],[-122.27874,47.629],[-122.27872,47.62923],[-122.27802,47.63007],[-122.2775,47.63042],[-122.277,47.63055],[-122.27707,47.63095],[-122.27672,47.63139],[-122.27674,47.6316],[-122.27649,47.63215],[-122.27655,47.63252],[-122.27642,47.63275],[-122.27644,47.63308],[-122.27582,47.63344],[-122.27581,47.63361],[-122.27603,47.63371],[-122.27593,47.63384],[-122.27607,47.63397],[-122.27604,47.63441],[-122.27642,47.63482],[-122.27648,47.63592],[-122.27638,47.63657],[-122.27616,47.63682],[-122.27611,47.63737],[-122.27583,47.63742],[-122.27577,47.63778],[-122.27543,47.63782],[-122.27542,47.63791],[-122.27581,47.6381],[-122.2758,47.63838],[-122.27655,47.63852],[-122.27654,47.63965],[-122.2763,47.63976],[-122.27525,47.63978],[-122.27527,47.63999],[-122.27626,47.6401],[-122.27641,47.64042],[-122.27622,47.64058],[-122.27529,47.64058],[-122.27522,47.64067],[-122.2753,47.64081],[-122.27621,47.64085],[-122.2763,47.64119],[-122.27686,47.64136],[-122.27729,47.64216],[-122.27773,47.64257],[-122.27812,47.64278],[-122.27927,47.64283],[-122.27989,47.64271],[-122.28128,47.6427],[-122.28186,47.64235],[-122.2832,47.64266],[-122.28434,47.64269],[-122.28454,47.6426],[-122.28504,47.64274],[-122.28524,47.64295],[-122.28542,47.64286],[-122.28558,47.64291],[-122.2855,47.64326],[-122.28568,47.6437],[-122.28594,47.64384],[-122.28676,47.6439],[-122.28756,47.64304],[-122.28808,47.64275],[-122.28828,47.64277],[-122.28843,47.64298],[-122.28883,47.64273],[-122.28929,47.64281],[-122.2899,47.64232],[-122.28998,47.64211],[-122.29067,47.64196],[-122.29134,47.64196],[-122.29202,47.64211],[-122.29306,47.64174],[-122.2941,47.64118],[-122.29425,47.64136],[-122.29405,47.64185],[-122.29412,47.64206],[-122.29451,47.64218],[-122.29513,47.64263],[-122.29456,47.64306],[-122.29458,47.64342],[-122.2948,47.6437],[-122.29472,47.64453],[-122.29483,47.6449],[-122.29566,47.64493],[-122.29604,47.64473],[-122.29624,47.64343],[-122.29744,47.64331],[-122.29795,47.64356],[-122.29846,47.64399],[-122.29821,47.64422],[-122.29735,47.6441],[-122.29749,47.64452],[-122.29861,47.64477],[-122.29866,47.64501],[-122.29944,47.64581],[-122.29941,47.64601],[-122.29974,47.64632],[-122.30048,47.64659],[-122.30082,47.647],[-122.30905,47.64704],[-122.30949,47.64686],[-122.30983,47.64634],[-122.30973,47.64554],[-122.30885,47.64496],[-122.30882,47.64472],[-122.30869,47.64459],[-122.30815,47.64454],[-122.30769,47.64397],[-122.30717,47.64357],[-122.30721,47.64342],[-122.3076,47.64333],[-122.30763,47.64315],[-122.30798,47.64305],[-122.30824,47.64321],[-122.30865,47.64322],[-122.31001,47.64298],[-122.3102,47.64287],[-122.31029,47.64248],[-122.31106,47.6423],[-122.31111,47.64185],[-122.31149,47.64179],[-122.31197,47.64139],[-122.31216,47.64145],[-122.31225,47.64179],[-122.31288,47.64193],[-122.31317,47.6418],[-122.3137,47.64221],[-122.31435,47.64223],[-122.31512,47.64279],[-122.31516,47.64303],[-122.32217,47.64222],[-122.32271,47.64185],[-122.32283,47.64142],[-122.32287,47.63972]],[[-122.29636,47.64184],[-122.29638,47.64198],[-122.29603,47.64244],[-122.29561,47.64269],[-122.2954,47.64264],[-122.29556,47.64226],[-122.29543,47.64201],[-122.29552,47.64184],[-122.29601,47.64154],[-122.29636,47.64184]]]}},{"type":"Feature","properties":{"name":"Capitol Hill","tone":"moss","label":[-122.30093,47.62859]},"geometry":{"type":"Polygon","coordinates":[[[-122.33059,47.61276],[-122.32735,47.61409],[-122.31957,47.61408],[-122.31943,47.61397],[-122.31943,47.61294],[-122.31664,47.61292],[-122.30414,47.61806],[-122.29652,47.62321],[-122.29635,47.62316],[-122.29611,47.62258],[-122.2961,47.6189],[-122.29139,47.61887],[-122.29126,47.61879],[-122.29124,47.61837],[-122.28559,47.61835],[-122.28494,47.61811],[-122.28455,47.61762],[-122.28011,47.61768],[-122.2802,47.61831],[-122.28037,47.61848],[-122.28012,47.61895],[-122.28023,47.61921],[-122.28006,47.6199],[-122.27972,47.62065],[-122.28033,47.62086],[-122.28082,47.62166],[-122.28136,47.6219],[-122.28245,47.62264],[-122.2825,47.62309],[-122.28261,47.62319],[-122.28265,47.62428],[-122.28255,47.62459],[-122.28205,47.62518],[-122.28219,47.62537],[-122.28183,47.6255],[-122.28161,47.62597],[-122.28115,47.62637],[-122.28076,47.62654],[-122.28059,47.62683],[-122.28009,47.62704],[-122.27941,47.62781],[-122.27904,47.62789],[-122.27885,47.62833],[-122.27896,47.62852],[-122.27993,47.62857],[-122.27994,47.62972],[-122.28131,47.62979],[-122.28132,47.63095],[-122.28512,47.63098],[-122.29221,47.62616],[-122.29238,47.62613],[-122.29282,47.62658],[-122.29302,47.62738],[-122.29332,47.62774],[-122.29396,47.62809],[-122.29535,47.62856],[-122.29584,47.62891],[-122.29643,47.62981],[-122.29743,47.63097],[-122.29758,47.63129],[-122.29773,47.63224],[-122.29964,47.6323],[-122.30011,47.63324],[-122.30125,47.63454],[-122.30189,47.6346],[-122.30382,47.63562],[-122.30474,47.63592],[-122.30563,47.63582],[-122.30609,47.63545],[-122.3064,47.63543],[-122.30656,47.63558],[-122.30656,47.6361],[-122.30707,47.63615],[-122.30761,47.63642],[-122.30786,47.63638],[-122.30829,47.63578],[-122.3087,47.63571],[-122.30877,47.63582],[-122.30857,47.63608],[-122.30857,47.63636],[-122.30929,47.63754],[-122.30959,47.63728],[-122.31019,47.63703],[-122.31047,47.63651],[-122.31093,47.63646],[-122.31113,47.6367],[-122.31115,47.63738],[-122.31079,47.63797],[-122.3113,47.63864],[-122.3119,47.63882],[-122.31285,47.63871],[-122.31417,47.63916],[-122.31468,47.63896],[-122.31469,47.63826],[-122.31359,47.63747],[-122.31365,47.63595],[-122.32117,47.63591],[-122.32134,47.63614],[-122.32132,47.63954],[-122.3223,47.63953],[-122.32287,47.63971],[-122.32293,47.63684],[-122.32305,47.63592],[-122.32342,47.63452],[-122.3242,47.63258],[-122.32507,47.6314],[-122.32779,47.62892],[-122.32823,47.62827],[-122.32854,47.62752],[-122.32865,47.62694],[-122.32863,47.61917],[-122.32872,47.61825],[-122.3292,47.61617],[-122.33059,47.61276]]]}},{"type":"Feature","properties":{"name":"Central District","tone":"olive","label":[-122.28789,47.60438]},"geometry":{"type":"Polygon","coordinates":[[[-122.31677,47.60314],[-122.31676,47.60171],[-122.29687,47.60165],[-122.2968,47.60134],[-122.29742,47.59956],[-122.29753,47.59585],[-122.29784,47.59472],[-122.29779,47.59296],[-122.29746,47.59127],[-122.28631,47.59111],[-122.28619,47.59135],[-122.28651,47.59162],[-122.28668,47.59215],[-122.28722,47.59285],[-122.28728,47.59338],[-122.28703,47.594],[-122.28678,47.59572],[-122.28651,47.59582],[-122.28647,47.59593],[-122.28646,47.59633],[-122.28659,47.5964],[-122.28658,47.59656],[-122.28635,47.59669],[-122.28635,47.59711],[-122.28609,47.59733],[-122.28634,47.59785],[-122.28624,47.5984],[-122.28611,47.59849],[-122.28564,47.59849],[-122.28561,47.59863],[-122.28597,47.59869],[-122.28596,47.59889],[-122.28546,47.59956],[-122.28534,47.5999],[-122.28513,47.59995],[-122.28509,47.60009],[-122.28526,47.60014],[-122.28529,47.60026],[-122.28495,47.60135],[-122.28449,47.6014],[-122.28443,47.60183],[-122.28396,47.60179],[-122.28395,47.60203],[-122.28427,47.60207],[-122.28433,47.60218],[-122.28391,47.60286],[-122.28403,47.60314],[-122.28389,47.60346],[-122.28315,47.60448],[-122.28316,47.60497],[-122.28303,47.60545],[-122.28311,47.60568],[-122.28303,47.60581],[-122.28308,47.60672],[-122.28282,47.60823],[-122.28194,47.61015],[-122.282,47.61132],[-122.28119,47.61226],[-122.28106,47.61384],[-122.28123,47.61409],[-122.28128,47.61451],[-122.28097,47.61513],[-122.28054,47.61533],[-122.28064,47.61549],[-122.28059,47.61572],[-122.28,47.61675],[-122.28011,47.61768],[-122.28444,47.61762],[-122.28497,47.61814],[-122.28559,47.61835],[-122.29109,47.61837],[-122.29125,47.61845],[-122.29126,47.61887],[-122.296,47.61891],[-122.2961,47.61901],[-122.29611,47.62259],[-122.29641,47.62331],[-122.30415,47.61805],[-122.31674,47.61289],[-122.31677,47.60314]]]}},{"type":"Feature","properties":{"name":"First Hill","tone":"plum","label":[-122.32408,47.60706]},"geometry":{"type":"Polygon","coordinates":[[[-122.33119,47.61051],[-122.33101,47.60935],[-122.33039,47.60805],[-122.32769,47.60471],[-122.32495,47.6017],[-122.32256,47.59998],[-122.32171,47.59918],[-122.31721,47.59919],[-122.31717,47.60025],[-122.31676,47.60168],[-122.31674,47.61289],[-122.31936,47.61295],[-122.31944,47.61408],[-122.32739,47.61409],[-122.33059,47.61276],[-122.33105,47.61158],[-122.33119,47.61051]]]}},{"type":"Feature","properties":{"name":"International District","tone":"rust","label":[-122.30755,47.5933]},"geometry":{"type":"Polygon","coordinates":[[[-122.32903,47.59648],[-122.32767,47.59579],[-122.3115,47.59584],[-122.29659,47.57633],[-122.29619,47.57737],[-122.2962,47.57989],[-122.29639,47.58042],[-122.29793,47.58254],[-122.29813,47.5834],[-122.29801,47.58843],[-122.29764,47.58945],[-122.29738,47.5908],[-122.29779,47.59295],[-122.29784,47.59472],[-122.29753,47.59584],[-122.29742,47.59956],[-122.2968,47.60135],[-122.2968,47.60167],[-122.31676,47.60171],[-122.31717,47.60026],[-122.31726,47.59922],[-122.32015,47.59917],[-122.32172,47.5992],[-122.32256,47.59999],[-122.32495,47.6017],[-122.32895,47.60171],[-122.32903,47.59648]]]}},{"type":"Feature","properties":{"name":"Downtown","tone":"ochre","label":[-122.34254,47.60589]},"geometry":{"type":"Polygon","coordinates":[[[-122.36049,47.6185],[-122.36042,47.61808],[-122.35993,47.6177],[-122.35889,47.61714],[-122.35784,47.61677],[-122.35548,47.61508],[-122.35562,47.61497],[-122.3573,47.61497],[-122.35733,47.61489],[-122.35667,47.61452],[-122.35449,47.6145],[-122.3543,47.6144],[-122.35436,47.61429],[-122.35469,47.61426],[-122.35482,47.61413],[-122.35568,47.61412],[-122.3557,47.61389],[-122.35501,47.61356],[-122.35281,47.61354],[-122.35223,47.61312],[-122.35265,47.61303],[-122.35256,47.6129],[-122.35266,47.6128],[-122.35314,47.61278],[-122.35315,47.61258],[-122.35251,47.61225],[-122.35036,47.61224],[-122.34978,47.61187],[-122.35013,47.61148],[-122.34878,47.61068],[-122.34795,47.61064],[-122.34758,47.61044],[-122.34729,47.61042],[-122.34502,47.60905],[-122.34515,47.60892],[-122.3464,47.6089],[-122.34595,47.60862],[-122.34532,47.60838],[-122.34387,47.60838],[-122.3435,47.60817],[-122.34357,47.60759],[-122.34422,47.60751],[-122.34381,47.60726],[-122.343,47.60725],[-122.34281,47.60709],[-122.34259,47.60712],[-122.34205,47.60683],[-122.34166,47.60684],[-122.3415,47.60668],[-122.34156,47.60648],[-122.3419,47.60632],[-122.34276,47.60629],[-122.34254,47.60589],[-122.34114,47.60587],[-122.34095,47.60578],[-122.34107,47.60563],[-122.34211,47.60562],[-122.34195,47.60527],[-122.34049,47.60522],[-122.34027,47.60505],[-122.34042,47.60493],[-122.34042,47.60462],[-122.33946,47.60453],[-122.33957,47.60438],[-122.34048,47.60433],[-122.34009,47.60391],[-122.33902,47.60381],[-122.33901,47.60359],[-122.3392,47.60352],[-122.33923,47.60336],[-122.33964,47.60331],[-122.33924,47.6032],[-122.33923,47.603],[-122.33986,47.60292],[-122.33933,47.60277],[-122.33946,47.60259],[-122.33983,47.6025],[-122.33942,47.60244],[-122.3394,47.60198],[-122.33926,47.60191],[-122.33923,47.60175],[-122.33811,47.60175],[-122.33794,47.60155],[-122.3367,47.60157],[-122.33638,47.60126],[-122.33628,47.6011],[-122.33633,47.60084],[-122.33683,47.60079],[-122.33694,47.60058],[-122.33741,47.60057],[-122.3376,47.60043],[-122.33965,47.60036],[-122.3396,47.59972],[-122.33744,47.59972],[-122.33703,47.59962],[-122.33685,47.59944],[-122.33731,47.59936],[-122.33748,47.59908],[-122.34008,47.59902],[-122.34226,47.5932],[-122.34202,47.59261],[-122.33864,47.59239],[-122.32903,47.59239],[-122.32895,47.60162],[-122.32879,47.60171],[-122.32495,47.6017],[-122.32768,47.60471],[-122.33016,47.60774],[-122.33064,47.60847],[-122.33111,47.60973],[-122.33119,47.61071],[-122.33105,47.61158],[-122.3292,47.61617],[-122.32869,47.61846],[-122.35779,47.61861],[-122.36045,47.61858],[-122.36049,47.6185]]]}},{"type":"Feature","properties":{"name":"SODO","tone":"moss","label":[-122.33676,47.57303]},"geometry":{"type":"MultiPolygon","coordinates":[[[[-122.3462,47.56469],[-122.34557,47.56347],[-122.34519,47.56332],[-122.34524,47.5631],[-122.3447,47.56237],[-122.34452,47.56191],[-122.34473,47.56161],[-122.34474,47.56134],[-122.34452,47.56084],[-122.34434,47.56065],[-122.34397,47.56068],[-122.34381,47.56057],[-122.3442,47.56029],[-122.34419,47.55998],[-122.34336,47.55873],[-122.34265,47.55708],[-122.34008,47.55705],[-122.34003,47.55658],[-122.33974,47.55647],[-122.33936,47.5561],[-122.3394,47.55596],[-122.33963,47.55589],[-122.34177,47.5561],[-122.33836,47.55565],[-122.33766,47.55425],[-122.33742,47.55405],[-122.33705,47.55422],[-122.32532,47.55414],[-122.32469,47.55409],[-122.32388,47.55336],[-122.321,47.55334],[-122.32043,47.55358],[-122.31973,47.55307],[-122.31959,47.5533],[-122.31926,47.55344],[-122.31769,47.55345],[-122.32081,47.55831],[-122.3212,47.55916],[-122.3214,47.56001],[-122.32145,47.5609],[-122.32133,47.56228],[-122.32016,47.56864],[-122.31995,47.57046],[-122.31963,47.57594],[-122.31895,47.57929],[-122.319,47.58028],[-122.31984,47.58394],[-122.3203,47.58833],[-122.32099,47.5912],[-122.32089,47.59232],[-122.32022,47.59582],[-122.32763,47.5958],[-122.32903,47.59648],[-122.32903,47.5925],[-122.32916,47.59239],[-122.33865,47.59239],[-122.34194,47.59261],[-122.34226,47.59319],[-122.34299,47.59127],[-122.34298,47.59074],[-122.34285,47.59066],[-122.33838,47.59066],[-122.33826,47.59057],[-122.33825,47.59015],[-122.33841,47.59004],[-122.34291,47.59003],[-122.34291,47.58969],[-122.34245,47.58948],[-122.34287,47.58923],[-122.34295,47.58886],[-122.34287,47.58866],[-122.34256,47.58842],[-122.34257,47.5877],[-122.34296,47.58763],[-122.34297,47.58738],[-122.34277,47.58724],[-122.34276,47.58624],[-122.34256,47.58618],[-122.34253,47.58593],[-122.34258,47.58554],[-122.34299,47.58549],[-122.34299,47.58041],[-122.34022,47.57853],[-122.34017,47.57798],[-122.34037,47.57789],[-122.34099,47.5781],[-122.34236,47.57895],[-122.3425,47.57881],[-122.34253,47.57805],[-122.34298,47.57798],[-122.343,47.57375],[-122.34369,47.57359],[-122.34413,47.57233],[-122.34446,47.57201],[-122.34474,47.57086],[-122.34522,47.57059],[-122.34572,47.56934],[-122.34538,47.56902],[-122.34578,47.568],[-122.34558,47.56791],[-122.34559,47.5675],[-122.3462,47.56469]]],[[[-122.38362,47.59399],[-122.38152,47.58949],[-122.37627,47.58577],[-122.37317,47.58206],[-122.37247,47.58022],[-122.37255,47.57878],[-122.37145,47.57686],[-122.37097,47.57466],[-122.37061,47.57143],[-122.36032,47.57146],[-122.35616,47.57091],[-122.35351,47.56673],[-122.35176,47.56166],[-122.35166,47.55805],[-122.35141,47.55732],[-122.35073,47.55655],[-122.34741,47.55426],[-122.34708,47.55393],[-122.34661,47.55306],[-122.3457,47.54979],[-122.34426,47.54327],[-122.34352,47.54143],[-122.34262,47.5404],[-122.34241,47.5404],[-122.34229,47.54025],[-122.33707,47.54065],[-122.33625,47.541],[-122.3355,47.54218],[-122.33602,47.54234],[-122.33763,47.54366],[-122.33807,47.54362],[-122.33824,47.54374],[-122.33887,47.54496],[-122.33853,47.54519],[-122.34014,47.54825],[-122.34052,47.54818],[-122.3409,47.54836],[-122.34243,47.54842],[-122.34205,47.54907],[-122.34165,47.54923],[-122.34168,47.54944],[-122.34147,47.54972],[-122.34141,47.5501],[-122.34097,47.55021],[-122.34116,47.55079],[-122.3414,47.55087],[-122.34142,47.55113],[-122.34182,47.55117],[-122.34182,47.55138],[-122.34167,47.55146],[-122.34211,47.55229],[-122.3423,47.55235],[-122.3438,47.55522],[-122.34602,47.55499],[-122.34765,47.5553],[-122.34783,47.55554],[-122.3487,47.55597],[-122.34972,47.55697],[-122.35043,47.55792],[-122.3502,47.55975],[-122.3503,47.5605],[-122.35053,47.56095],[-122.35001,47.56122],[-122.35018,47.56171],[-122.34931,47.56208],[-122.34934,47.5623],[-122.34813,47.56337],[-122.34895,47.56509],[-122.34942,47.56514],[-122.34982,47.56563],[-122.34984,47.56594],[-122.35027,47.56624],[-122.35022,47.56642],[-122.3504,47.56701],[-122.35012,47.56739],[-122.35029,47.56793],[-122.35078,47.56833],[-122.35084,47.56855],[-122.35126,47.5687],[-122.35148,47.56887],[-122.35146,47.56898],[-122.35243,47.56969],[-122.35271,47.56969],[-122.35288,47.56996],[-122.35427,47.57105],[-122.3548,47.57113],[-122.35487,47.57153],[-122.35606,47.5722],[-122.35627,47.57248],[-122.35615,47.57261],[-122.35651,47.5729],[-122.35686,47.5729],[-122.35781,47.57359],[-122.35845,47.57381],[-122.3598,47.57381],[-122.35994,47.5737],[-122.36049,47.57366],[-122.36139,47.57372],[-122.36139,47.58047],[-122.36166,47.58057],[-122.36168,47.58134],[-122.36193,47.58135],[-122.36204,47.58147],[-122.36204,47.58258],[-122.36189,47.58278],[-122.36188,47.58328],[-122.36211,47.58356],[-122.36212,47.58414],[-122.36279,47.58439],[-122.36597,47.58441],[-122.36607,47.58449],[-122.36613,47.58498],[-122.36634,47.58484],[-122.36731,47.5847],[-122.36802,47.58511],[-122.36874,47.58475],[-122.36885,47.58484],[-122.36886,47.58508],[-122.36897,47.58502],[-122.36898,47.58385],[-122.36997,47.58354],[-122.37012,47.58311],[-122.3723,47.58337],[-122.3726,47.58377],[-122.37354,47.58454],[-122.37527,47.58566],[-122.37555,47.58607],[-122.37636,47.58679],[-122.37666,47.58677],[-122.37755,47.58723],[-122.37781,47.58724],[-122.37802,47.58739],[-122.37813,47.58771],[-122.37851,47.58785],[-122.3793,47.58854],[-122.37962,47.58848],[-122.37994,47.58866],[-122.38011,47.58883],[-122.38,47.58901],[-122.38006,47.58934],[-122.3803,47.58962],[-122.38129,47.5898],[-122.38163,47.5903],[-122.38156,47.59075],[-122.38186,47.59118],[-122.3817,47.59142],[-122.38188,47.59206],[-122.38182,47.59244],[-122.38221,47.59256],[-122.38237,47.59287],[-122.382,47.59316],[-122.38223,47.59346],[-122.38261,47.59367],[-122.38292,47.59408],[-122.38362,47.59399]]],[[[-122.3584,47.57687],[-122.35836,47.57542],[-122.35666,47.57415],[-122.35629,47.57416],[-122.35497,47.57328],[-122.35411,47.57262],[-122.35363,47.57196],[-122.35334,47.57175],[-122.35309,47.57172],[-122.35266,47.57128],[-122.3523,47.57117],[-122.35187,47.57076],[-122.35148,47.57072],[-122.35133,47.57049],[-122.35087,47.57061],[-122.35044,47.57051],[-122.34884,47.56935],[-122.34785,47.56923],[-122.34659,47.5693],[-122.34612,47.57051],[-122.34637,47.57081],[-122.3463,47.57121],[-122.34596,47.57177],[-122.34601,47.57195],[-122.34538,47.57343],[-122.3455,47.57361],[-122.34601,47.57376],[-122.34601,47.59048],[-122.34642,47.59048],[-122.34649,47.59021],[-122.34958,47.58899],[-122.34989,47.58921],[-122.3499,47.58998],[-122.35001,47.58998],[-122.35001,47.58786],[-122.35094,47.58749],[-122.35494,47.58684],[-122.35523,47.58692],[-122.3553,47.58708],[-122.35584,47.58707],[-122.35604,47.58686],[-122.35786,47.58684],[-122.35793,47.58664],[-122.35837,47.58662],[-122.35837,47.58484],[-122.35659,47.58504],[-122.35626,47.58427],[-122.35643,47.58413],[-122.35835,47.58381],[-122.35829,47.58373],[-122.3576,47.58381],[-122.35744,47.58358],[-122.3581,47.58338],[-122.35789,47.58316],[-122.35787,47.58144],[-122.35806,47.58133],[-122.35838,47.5815],[-122.35836,47.58072],[-122.35748,47.58008],[-122.35773,47.57995],[-122.35828,47.58032],[-122.35837,47.58027],[-122.35837,47.57983],[-122.35815,47.57962],[-122.35836,47.57952],[-122.35836,47.5794],[-122.35757,47.5788],[-122.35783,47.57869],[-122.35835,47.57902],[-122.35838,47.57737],[-122.35821,47.57723],[-122.35794,47.57727],[-122.35787,47.57713],[-122.3584,47.57687]],[[-122.35817,47.57746],[-122.35804,47.57771],[-122.35775,47.57753],[-122.35797,47.57732],[-122.35817,47.57746]]]]}},{"type":"Feature","properties":{"name":"Georgetown","tone":"ochre","label":[-122.32428,47.54128]},"geometry":{"type":"Polygon","coordinates":[[[-122.3419,47.55562],[-122.34147,47.55484],[-122.34094,47.55474],[-122.34074,47.55459],[-122.34064,47.55408],[-122.34071,47.55379],[-122.34008,47.55213],[-122.33881,47.54997],[-122.33851,47.54975],[-122.33826,47.54916],[-122.33821,47.54845],[-122.33692,47.5464],[-122.33681,47.54636],[-122.33636,47.54658],[-122.33528,47.54761],[-122.33502,47.5477],[-122.33483,47.54761],[-122.33489,47.54696],[-122.33585,47.54569],[-122.33613,47.54511],[-122.33626,47.54451],[-122.33596,47.54412],[-122.33537,47.54359],[-122.33492,47.54348],[-122.33413,47.54294],[-122.33356,47.54293],[-122.33285,47.54273],[-122.33199,47.54303],[-122.33014,47.54307],[-122.32995,47.54248],[-122.33002,47.54237],[-122.33248,47.5423],[-122.33246,47.54222],[-122.33102,47.54222],[-122.3309,47.54202],[-122.33102,47.54194],[-122.33247,47.54194],[-122.33259,47.54186],[-122.32949,47.53967],[-122.3279,47.53947],[-122.3278,47.53932],[-122.32819,47.53903],[-122.32813,47.53889],[-122.32824,47.53878],[-122.32785,47.5385],[-122.32763,47.53854],[-122.32721,47.53827],[-122.32692,47.53795],[-122.32693,47.53784],[-122.32608,47.53723],[-122.32567,47.53708],[-122.32413,47.53596],[-122.32365,47.53568],[-122.32296,47.53551],[-122.32252,47.53504],[-122.32186,47.53474],[-122.32113,47.53476],[-122.31983,47.53561],[-122.31914,47.53674],[-122.3191,47.53713],[-122.31889,47.53721],[-122.31861,47.53711],[-122.31849,47.53665],[-122.31862,47.53597],[-122.31947,47.53515],[-122.32099,47.53416],[-122.32093,47.53402],[-122.3201,47.5334],[-122.31907,47.53287],[-122.31849,47.53269],[-122.31823,47.53245],[-122.31778,47.53232],[-122.31691,47.5318],[-122.30516,47.53169],[-122.30479,47.53112],[-122.30435,47.53076],[-122.30152,47.52951],[-122.30106,47.52911],[-122.3006,47.52845],[-122.30009,47.52692],[-122.29966,47.52601],[-122.2996,47.52559],[-122.29973,47.52528],[-122.30007,47.525],[-122.30127,47.52446],[-122.29213,47.52429],[-122.29569,47.53239],[-122.29592,47.53322],[-122.29784,47.53307],[-122.29824,47.53385],[-122.30214,47.53737],[-122.30985,47.54383],[-122.31401,47.54748],[-122.3162,47.54864],[-122.31782,47.55011],[-122.31995,47.55227],[-122.32018,47.5527],[-122.32096,47.55336],[-122.32386,47.55337],[-122.32472,47.55412],[-122.3294,47.55423],[-122.3371,47.55422],[-122.33741,47.55409],[-122.33767,47.55426],[-122.33833,47.55566],[-122.34177,47.5561],[-122.34178,47.55589],[-122.34161,47.55575],[-122.3419,47.55562]]]}},{"type":"Feature","properties":{"name":"South Park","tone":"rust","label":[-122.32631,47.53352]},"geometry":{"type":"Polygon","coordinates":[[[-122.34229,47.54025],[-122.34021,47.53928],[-122.33695,47.53743],[-122.33493,47.53612],[-122.3348,47.53098],[-122.33436,47.52814],[-122.33494,47.52667],[-122.33451,47.5209],[-122.326,47.5209],[-122.32587,47.5208],[-122.32586,47.51869],[-122.31754,47.51866],[-122.31747,47.52217],[-122.30966,47.52217],[-122.30956,47.52325],[-122.30979,47.5239],[-122.30972,47.52451],[-122.31071,47.52538],[-122.31169,47.52654],[-122.31751,47.52819],[-122.31755,47.52942],[-122.31836,47.52943],[-122.31849,47.52952],[-122.31847,47.53096],[-122.31855,47.53103],[-122.31917,47.53144],[-122.31985,47.53147],[-122.31999,47.53159],[-122.32001,47.53181],[-122.32033,47.53212],[-122.32094,47.53236],[-122.32116,47.53259],[-122.32182,47.53293],[-122.32176,47.53313],[-122.32213,47.53336],[-122.32241,47.53333],[-122.3227,47.53357],[-122.32373,47.53401],[-122.32391,47.53431],[-122.32471,47.53478],[-122.32496,47.53459],[-122.32514,47.53461],[-122.32634,47.53572],[-122.32735,47.53621],[-122.32751,47.53657],[-122.32794,47.53684],[-122.32837,47.53691],[-122.32842,47.53707],[-122.32828,47.53717],[-122.32865,47.53743],[-122.32903,47.53746],[-122.33005,47.53804],[-122.33048,47.53851],[-122.33127,47.53902],[-122.33241,47.53917],[-122.3325,47.53938],[-122.33209,47.53947],[-122.3333,47.54036],[-122.33337,47.54047],[-122.33329,47.54058],[-122.33354,47.54078],[-122.33379,47.54074],[-122.33428,47.54105],[-122.33493,47.5411],[-122.33496,47.54136],[-122.3353,47.54187],[-122.33524,47.54199],[-122.3355,47.54218],[-122.33615,47.54109],[-122.33679,47.54071],[-122.34229,47.54025]]]}},{"type":"Feature","properties":{"name":"Beacon Hill","tone":"olive","label":[-122.30036,47.55164]},"geometry":{"type":"Polygon","coordinates":[[[-122.32146,47.56137],[-122.32139,47.56],[-122.3212,47.55915],[-122.32081,47.55831],[-122.31777,47.55356],[-122.3179,47.55346],[-122.31927,47.55344],[-122.31977,47.55317],[-122.32043,47.55362],[-122.32096,47.55336],[-122.32018,47.5527],[-122.31995,47.55227],[-122.31782,47.55011],[-122.3162,47.54863],[-122.31401,47.54748],[-122.30985,47.54383],[-122.30214,47.53737],[-122.29825,47.53386],[-122.29783,47.53302],[-122.29607,47.5332],[-122.2959,47.53314],[-122.29569,47.53239],[-122.29214,47.5243],[-122.29126,47.52419],[-122.29132,47.51014],[-122.27847,47.50985],[-122.27873,47.51312],[-122.2792,47.51672],[-122.27984,47.5188],[-122.27998,47.51982],[-122.27987,47.52082],[-122.27875,47.52449],[-122.27877,47.52496],[-122.27903,47.52591],[-122.2805,47.52885],[-122.28062,47.52942],[-122.28063,47.53153],[-122.28324,47.53158],[-122.28333,47.53343],[-122.28387,47.53539],[-122.28419,47.53576],[-122.28466,47.53605],[-122.28657,47.53661],[-122.28687,47.5369],[-122.28685,47.5373],[-122.29141,47.53885],[-122.29689,47.53897],[-122.29713,47.53936],[-122.29687,47.53962],[-122.29688,47.54432],[-122.29678,47.54442],[-122.29039,47.54432],[-122.29029,47.54422],[-122.29025,47.54249],[-122.28379,47.54245],[-122.2904,47.55608],[-122.29335,47.56082],[-122.29491,47.56088],[-122.29672,47.56156],[-122.29777,47.56165],[-122.29838,47.56152],[-122.3025,47.55997],[-122.3045,47.55961],[-122.30466,47.5597],[-122.30508,47.56106],[-122.30496,47.56119],[-122.30304,47.56129],[-122.30224,47.56164],[-122.30158,47.56259],[-122.30169,47.56282],[-122.30233,47.56336],[-122.3023,47.5637],[-122.30199,47.56393],[-122.3012,47.5641],[-122.30075,47.56433],[-122.29974,47.56557],[-122.29971,47.56638],[-122.29924,47.56747],[-122.29916,47.57225],[-122.29918,47.57287],[-122.2994,47.57323],[-122.29936,47.57572],[-122.29908,47.57588],[-122.29672,47.57588],[-122.29659,47.57633],[-122.31151,47.59587],[-122.32022,47.59582],[-122.32089,47.59232],[-122.32099,47.5912],[-122.3203,47.58833],[-122.31984,47.58394],[-122.319,47.58028],[-122.31895,47.57929],[-122.31963,47.57595],[-122.31995,47.57046],[-122.32016,47.56864],[-122.32146,47.56137]]]}},{"type":"Feature","properties":{"name":"Rainier Valley","tone":"ochre","label":[-122.27354,47.53812]},"geometry":{"type":"MultiPolygon","coordinates":[[[[-122.30511,47.56118],[-122.30463,47.55959],[-122.3025,47.55997],[-122.29838,47.56152],[-122.29777,47.56165],[-122.29673,47.56156],[-122.29491,47.56088],[-122.2934,47.56081],[-122.2904,47.55608],[-122.28385,47.54253],[-122.28401,47.54245],[-122.29013,47.54249],[-122.29025,47.54259],[-122.2903,47.54433],[-122.29688,47.54443],[-122.29687,47.53966],[-122.29715,47.53941],[-122.29699,47.53897],[-122.29141,47.53885],[-122.28694,47.53733],[-122.28685,47.53687],[-122.28657,47.53661],[-122.28465,47.53605],[-122.2842,47.53576],[-122.28387,47.53539],[-122.28333,47.53343],[-122.28326,47.53153],[-122.28064,47.53146],[-122.28062,47.52942],[-122.28049,47.52885],[-122.27903,47.5259],[-122.27877,47.52496],[-122.27875,47.52448],[-122.27987,47.52082],[-122.27998,47.5197],[-122.27984,47.51877],[-122.2792,47.51672],[-122.27873,47.51312],[-122.27847,47.50985],[-122.27818,47.50974],[-122.27815,47.50813],[-122.27751,47.50805],[-122.27613,47.50732],[-122.27544,47.50719],[-122.2754,47.50967],[-122.27532,47.50976],[-122.27021,47.50966],[-122.27006,47.50957],[-122.2702,47.5016],[-122.27035,47.5015],[-122.27077,47.50158],[-122.27046,47.50025],[-122.27022,47.50011],[-122.27028,47.49551],[-122.25963,47.49562],[-122.25949,47.50242],[-122.25937,47.50253],[-122.25076,47.5029],[-122.25042,47.50237],[-122.24949,47.49934],[-122.24086,47.49924],[-122.2408,47.50288],[-122.24552,47.503],[-122.24545,47.50389],[-122.24655,47.50496],[-122.24742,47.50959],[-122.24727,47.50967],[-122.24515,47.50967],[-122.23603,47.50956],[-122.23804,47.51064],[-122.24021,47.51131],[-122.2411,47.51129],[-122.24272,47.51161],[-122.24408,47.5116],[-122.24502,47.51173],[-122.24572,47.5119],[-122.24612,47.51214],[-122.24617,47.51235],[-122.24649,47.51224],[-122.24703,47.51231],[-122.24737,47.51264],[-122.24765,47.51257],[-122.24794,47.51273],[-122.24857,47.51263],[-122.24938,47.51274],[-122.25088,47.51384],[-122.25218,47.51516],[-122.25398,47.51632],[-122.25433,47.51696],[-122.25447,47.51766],[-122.25556,47.51838],[-122.25635,47.51907],[-122.2584,47.52002],[-122.25873,47.52027],[-122.26027,47.52083],[-122.26061,47.52069],[-122.26088,47.52073],[-122.26132,47.52109],[-122.26157,47.52114],[-122.26227,47.5209],[-122.26302,47.52157],[-122.26319,47.52247],[-122.26309,47.52314],[-122.26223,47.52405],[-122.2616,47.52403],[-122.26132,47.52369],[-122.26083,47.52365],[-122.26046,47.52372],[-122.26023,47.52402],[-122.25991,47.52506],[-122.2599,47.52546],[-122.26002,47.52644],[-122.26013,47.52657],[-122.26006,47.52705],[-122.26019,47.52725],[-122.2603,47.52801],[-122.26046,47.52834],[-122.26166,47.52925],[-122.26272,47.52924],[-122.26313,47.52969],[-122.26319,47.53],[-122.26296,47.53093],[-122.2631,47.53159],[-122.2664,47.53165],[-122.26724,47.5354],[-122.26718,47.53871],[-122.26689,47.5398],[-122.26989,47.53986],[-122.26987,47.54606],[-122.27246,47.54604],[-122.27262,47.54612],[-122.27261,47.55705],[-122.27566,47.55709],[-122.27574,47.5641],[-122.27947,47.56415],[-122.27954,47.56997],[-122.28019,47.57098],[-122.28068,47.57202],[-122.28075,47.57333],[-122.28045,47.57345],[-122.28086,47.5744],[-122.28225,47.5762],[-122.28329,47.57838],[-122.28392,47.5801],[-122.28451,47.58106],[-122.28536,47.58196],[-122.28723,47.58318],[-122.28759,47.58373],[-122.28758,47.58445],[-122.28729,47.58495],[-122.28576,47.58619],[-122.28578,47.58691],[-122.28522,47.58808],[-122.28529,47.58828],[-122.28511,47.58867],[-122.28526,47.58879],[-122.28537,47.58945],[-122.28551,47.58961],[-122.28567,47.59022],[-122.28631,47.59111],[-122.29746,47.59127],[-122.29739,47.59079],[-122.29748,47.5902],[-122.29801,47.58844],[-122.29812,47.58323],[-122.29792,47.58254],[-122.29639,47.58042],[-122.29625,47.58006],[-122.29615,47.57945],[-122.29623,47.57712],[-122.29679,47.57589],[-122.29909,47.57588],[-122.29936,47.57572],[-122.2994,47.57321],[-122.29918,47.57287],[-122.29916,47.57225],[-122.29924,47.56747],[-122.29971,47.56638],[-122.29975,47.56555],[-122.30075,47.56433],[-122.3012,47.5641],[-122.30199,47.56393],[-122.3023,47.5637],[-122.30234,47.56336],[-122.30169,47.56283],[-122.30158,47.56258],[-122.30224,47.56164],[-122.30308,47.56128],[-122.30511,47.56118]],[[-122.24883,47.5061],[-122.24818,47.50641],[-122.24797,47.50633],[-122.24799,47.50309],[-122.24809,47.50299],[-122.2487,47.50299],[-122.24882,47.50308],[-122.24883,47.5061]]],[[[-122.39888,47.56301],[-122.39822,47.56292],[-122.39828,47.55942],[-122.38148,47.55928],[-122.38146,47.5612],[-122.37786,47.56399],[-122.3768,47.5647],[-122.37463,47.56575],[-122.3739,47.56635],[-122.37352,47.56698],[-122.37272,47.56987],[-122.37447,47.56986],[-122.37556,47.57017],[-122.37611,47.57022],[-122.37966,47.56979],[-122.38013,47.56929],[-122.38028,47.56935],[-122.38084,47.5702],[-122.39876,47.57033],[-122.39888,47.56301]]]]}},{"type":"Feature","properties":{"name":"Seward Park","tone":"moss","label":[-122.26288,47.55551]},"geometry":{"type":"Polygon","coordinates":[[[-122.28075,47.5734],[-122.28076,47.57249],[-122.28063,47.57189],[-122.27954,47.56995],[-122.27948,47.56408],[-122.27577,47.56405],[-122.27567,47.55703],[-122.27277,47.55705],[-122.27261,47.55696],[-122.27262,47.54604],[-122.27003,47.54605],[-122.26988,47.54597],[-122.26992,47.53981],[-122.26694,47.53973],[-122.26718,47.53871],[-122.26724,47.53539],[-122.26638,47.53158],[-122.2631,47.53159],[-122.26319,47.53222],[-122.26403,47.53338],[-122.26411,47.53386],[-122.264,47.53454],[-122.26346,47.53556],[-122.26265,47.53649],[-122.26195,47.53765],[-122.2618,47.53874],[-122.2617,47.53885],[-122.26191,47.53902],[-122.26188,47.53941],[-122.26204,47.54001],[-122.26164,47.54056],[-122.26,47.54164],[-122.25919,47.54232],[-122.25866,47.54315],[-122.25809,47.54373],[-122.25803,47.54397],[-122.25769,47.54431],[-122.25755,47.54487],[-122.25722,47.54518],[-122.25739,47.5458],[-122.25779,47.54624],[-122.25801,47.54692],[-122.25795,47.54738],[-122.25757,47.54785],[-122.25739,47.54839],[-122.25669,47.54872],[-122.25603,47.54882],[-122.25367,47.54891],[-122.25221,47.54881],[-122.24999,47.54939],[-122.24929,47.54975],[-122.24879,47.55019],[-122.24694,47.55199],[-122.24669,47.55239],[-122.24639,47.55374],[-122.24704,47.55493],[-122.24717,47.55572],[-122.2476,47.55626],[-122.24762,47.55652],[-122.24776,47.55663],[-122.24771,47.55769],[-122.24785,47.55847],[-122.24997,47.56102],[-122.25019,47.56139],[-122.25029,47.56185],[-122.25083,47.56221],[-122.2513,47.56232],[-122.25193,47.56226],[-122.25464,47.56192],[-122.25507,47.56169],[-122.2555,47.55981],[-122.25471,47.55706],[-122.25497,47.55566],[-122.25487,47.55522],[-122.25512,47.55482],[-122.25451,47.55468],[-122.25421,47.55449],[-122.25429,47.55403],[-122.2541,47.55365],[-122.255,47.55295],[-122.25731,47.55206],[-122.25724,47.55189],[-122.25765,47.55139],[-122.25949,47.55142],[-122.25971,47.55166],[-122.25975,47.55227],[-122.25999,47.55307],[-122.26027,47.5533],[-122.26058,47.55383],[-122.26063,47.55466],[-122.26094,47.55499],[-122.26096,47.55528],[-122.26123,47.55552],[-122.26155,47.55609],[-122.26161,47.55636],[-122.26149,47.55674],[-122.26162,47.55716],[-122.26147,47.55736],[-122.2617,47.55747],[-122.26195,47.55797],[-122.26227,47.55829],[-122.26265,47.55858],[-122.26308,47.55872],[-122.26345,47.55912],[-122.26358,47.55982],[-122.26436,47.56097],[-122.26459,47.5618],[-122.26481,47.56184],[-122.26503,47.5616],[-122.2656,47.56158],[-122.26681,47.56187],[-122.26718,47.56209],[-122.26774,47.56272],[-122.26823,47.56349],[-122.26796,47.56402],[-122.268,47.56425],[-122.26772,47.56442],[-122.2673,47.56436],[-122.26682,47.56477],[-122.267,47.56546],[-122.26772,47.56573],[-122.26806,47.56641],[-122.26918,47.56744],[-122.26997,47.568],[-122.27058,47.56804],[-122.27126,47.56783],[-122.27207,47.56797],[-122.2736,47.56923],[-122.27463,47.5699],[-122.27547,47.5703],[-122.27649,47.57056],[-122.27668,47.57079],[-122.27684,47.57141],[-122.27721,47.57172],[-122.27753,47.57174],[-122.27746,47.57159],[-122.27818,47.57035],[-122.27875,47.57028],[-122.27933,47.57046],[-122.27977,47.5708],[-122.28012,47.57138],[-122.28054,47.57252],[-122.28045,47.57345],[-122.28075,47.5734]]]}},{"type":"Feature","properties":{"name":"West Seattle","tone":"rust","label":[-122.39291,47.54988]},"geometry":{"type":"Polygon","coordinates":[[[-122.42079,47.57628],[-122.42044,47.5758],[-122.4193,47.57503],[-122.41823,47.57455],[-122.41661,47.5736],[-122.41484,47.57295],[-122.41253,47.57151],[-122.41164,47.57111],[-122.41129,47.57081],[-122.41143,47.57069],[-122.41266,47.57069],[-122.41267,47.57057],[-122.41243,47.57046],[-122.41094,47.57043],[-122.41069,47.57025],[-122.40978,47.56909],[-122.40982,47.56856],[-122.41,47.56843],[-122.41005,47.56784],[-122.4097,47.56688],[-122.40876,47.56574],[-122.40835,47.56557],[-122.4074,47.56484],[-122.40695,47.5636],[-122.40675,47.5635],[-122.40643,47.56272],[-122.40442,47.56116],[-122.40385,47.56002],[-122.4036,47.55991],[-122.40322,47.55951],[-122.40325,47.55925],[-122.40294,47.5588],[-122.40212,47.55794],[-122.40202,47.55765],[-122.40119,47.55695],[-122.40029,47.55566],[-122.40008,47.55556],[-122.3999,47.55498],[-122.39989,47.554],[-122.3991,47.55301],[-122.39871,47.55174],[-122.39872,47.55114],[-122.39846,47.55087],[-122.39831,47.55048],[-122.39838,47.5497],[-122.39828,47.54947],[-122.39842,47.54926],[-122.39839,47.54888],[-122.39874,47.5479],[-122.3994,47.54669],[-122.39948,47.54599],[-122.39861,47.54434],[-122.39837,47.54411],[-122.39721,47.5422],[-122.39709,47.54126],[-122.3975,47.53998],[-122.39737,47.53957],[-122.39676,47.53908],[-122.39675,47.53778],[-122.39596,47.53635],[-122.39586,47.53557],[-122.396,47.5351],[-122.39641,47.53449],[-122.39741,47.53345],[-122.3991,47.53218],[-122.40119,47.53082],[-122.40146,47.5306],[-122.4015,47.5303],[-122.4011,47.52969],[-122.40064,47.52934],[-122.39862,47.52837],[-122.39637,47.52711],[-122.39506,47.52616],[-122.39419,47.52531],[-122.39391,47.52483],[-122.39385,47.5244],[-122.39416,47.52318],[-122.39423,47.52146],[-122.39471,47.52063],[-122.39592,47.51954],[-122.39882,47.51755],[-122.39905,47.51735],[-122.39917,47.51699],[-122.39769,47.51621],[-122.39656,47.5154],[-122.39587,47.5141],[-122.39536,47.51337],[-122.3946,47.51127],[-122.39413,47.51075],[-122.39344,47.51036],[-122.39269,47.50925],[-122.39194,47.50863],[-122.39158,47.50791],[-122.39112,47.5075],[-122.39045,47.50653],[-122.38879,47.50501],[-122.38863,47.50467],[-122.38775,47.50395],[-122.38687,47.50249],[-122.38534,47.50185],[-122.37837,47.49853],[-122.37775,47.49778],[-122.37652,47.49714],[-122.37575,47.49637],[-122.37564,47.49643],[-122.37494,47.49742],[-122.37413,47.49952],[-122.37391,47.50072],[-122.37212,47.50211],[-122.37064,47.50355],[-122.37038,47.5057],[-122.37086,47.50811],[-122.37086,47.51031],[-122.37135,47.51742],[-122.37672,47.51748],[-122.37688,47.51759],[-122.37662,47.52707],[-122.37664,47.53532],[-122.37614,47.56396],[-122.37599,47.56407],[-122.37345,47.5641],[-122.37285,47.56434],[-122.37266,47.56451],[-122.3708,47.56757],[-122.37061,47.57149],[-122.37097,47.57466],[-122.37146,47.57687],[-122.37255,47.57878],[-122.37247,47.58022],[-122.37316,47.58205],[-122.37627,47.58577],[-122.38151,47.58949],[-122.38356,47.59388],[-122.3834,47.59403],[-122.38389,47.59458],[-122.38437,47.5949],[-122.38516,47.59521],[-122.38581,47.59532],[-122.38708,47.59524],[-122.38742,47.59549],[-122.38777,47.59537],[-122.38771,47.59519],[-122.38782,47.59508],[-122.39007,47.59397],[-122.3906,47.5936],[-122.3929,47.59083],[-122.40106,47.58377],[-122.40478,47.58196],[-122.41051,47.57953],[-122.41922,47.57713],[-122.42014,47.57673],[-122.42079,47.57628]],[[-122.39871,47.563],[-122.39888,47.56311],[-122.39876,47.57022],[-122.39866,47.57032],[-122.38092,47.5702],[-122.38013,47.56912],[-122.37967,47.56979],[-122.37612,47.57022],[-122.37555,47.57017],[-122.3745,47.56986],[-122.37292,47.56987],[-122.37276,47.56978],[-122.37352,47.56699],[-122.37391,47.56635],[-122.37464,47.56574],[-122.3768,47.5647],[-122.37787,47.56399],[-122.3815,47.56117],[-122.38148,47.55939],[-122.38158,47.55929],[-122.39816,47.55941],[-122.39828,47.55952],[-122.39822,47.56301],[-122.39871,47.563]]]}},{"type":"Feature","properties":{"name":"Delridge","tone":"ochre","label":[-122.34628,47.53393]},"geometry":{"type":"Polygon","coordinates":[[[-122.37688,47.51749],[-122.36065,47.51735],[-122.36052,47.51725],[-122.3605,47.51552],[-122.3585,47.51553],[-122.35852,47.51725],[-122.35839,47.51735],[-122.33765,47.51725],[-122.33749,47.51716],[-122.33703,47.51399],[-122.33425,47.51402],[-122.33432,47.51442],[-122.33425,47.5145],[-122.33358,47.51453],[-122.33347,47.51472],[-122.33103,47.51515],[-122.33044,47.51463],[-122.33006,47.51399],[-122.32732,47.51401],[-122.32862,47.5165],[-122.32919,47.51717],[-122.32957,47.51734],[-122.32958,47.51827],[-122.3299,47.51956],[-122.3309,47.52089],[-122.33423,47.52087],[-122.33451,47.52096],[-122.33494,47.52665],[-122.33435,47.52813],[-122.3348,47.53098],[-122.33493,47.53615],[-122.33694,47.53743],[-122.34021,47.53928],[-122.34225,47.54023],[-122.34241,47.54044],[-122.34264,47.54044],[-122.34353,47.54145],[-122.34426,47.54327],[-122.3457,47.54979],[-122.34661,47.55306],[-122.34708,47.55393],[-122.34741,47.55426],[-122.35073,47.55655],[-122.35141,47.55732],[-122.35166,47.55805],[-122.35176,47.56166],[-122.35352,47.56673],[-122.35619,47.57095],[-122.36032,47.57146],[-122.37061,47.57143],[-122.3708,47.56756],[-122.37266,47.56451],[-122.37342,47.56411],[-122.37614,47.56407],[-122.37664,47.53532],[-122.37662,47.52707],[-122.37688,47.51749]]]}}]}