{"type":"FeatureCollection","features":[{"type":"Feature","properties":{"name":"Loyal Heights","area":1.98},"geometry":{"type":"Point","coordinates":[-122.38468,47.68325]}},{"type":"Feature","properties":{"name":"Adams","area":2.08},"geometry":{"type":"Point","coordinates":[-122.38909,47.66835]}},{"type":"Feature","properties":{"name":"Whittier Heights","area":1.32},"geometry":{"type":"Point","coordinates":[-122.37139,47.68327]}},{"type":"Feature","properties":{"name":"West Woodland","area":2.06},"geometry":{"type":"Point","coordinates":[-122.3685,47.66627]}},{"type":"Feature","properties":{"name":"Phinney Ridge","area":2.98},"geometry":{"type":"Point","coordinates":[-122.35302,47.67272]}},{"type":"Feature","properties":{"name":"Wallingford","area":3.9},"geometry":{"type":"Point","coordinates":[-122.33445,47.65878]}},{"type":"Feature","properties":{"name":"Fremont","area":2.46},"geometry":{"type":"Point","coordinates":[-122.35446,47.65717]}},{"type":"Feature","properties":{"name":"Green Lake","area":3.46},"geometry":{"type":"Point","coordinates":[-122.33373,47.68001]}},{"type":"Feature","properties":{"name":"View Ridge","area":2.37},"geometry":{"type":"Point","coordinates":[-122.27434,47.6839]}},{"type":"Feature","properties":{"name":"Ravenna","area":3.43},"geometry":{"type":"Point","coordinates":[-122.3011,47.67576]}},{"type":"Feature","properties":{"name":"Sand Point","area":1.78},"geometry":{"type":"Point","coordinates":[-122.25656,47.68192]}},{"type":"Feature","properties":{"name":"Bryant","area":1.43},"geometry":{"type":"Point","coordinates":[-122.28614,47.67209]}},{"type":"Feature","properties":{"name":"Windermere","area":2.07},"geometry":{"type":"Point","coordinates":[-122.26565,47.66514]}},{"type":"Feature","properties":{"name":"Laurelhurst","area":1.77},"geometry":{"type":"Point","coordinates":[-122.27952,47.65819]}},{"type":"Feature","properties":{"name":"Roosevelt","area":1.99},"geometry":{"type":"Point","coordinates":[-122.31787,47.68071]}},{"type":"Feature","properties":{"name":"University District","area":4.57},"geometry":{"type":"Point","coordinates":[-122.3046,47.66092]}},{"type":"Feature","properties":{"name":"East Queen Anne","area":1.79},"geometry":{"type":"Point","coordinates":[-122.34861,47.63763]}},{"type":"Feature","properties":{"name":"West Queen Anne","area":1.67},"geometry":{"type":"Point","coordinates":[-122.36647,47.63405]}},{"type":"Feature","properties":{"name":"Lower Queen Anne","area":1.62},"geometry":{"type":"Point","coordinates":[-122.35605,47.62545]}},{"type":"Feature","properties":{"name":"North Queen Anne","area":2.74},"geometry":{"type":"Point","coordinates":[-122.36295,47.64875]}},{"type":"Feature","properties":{"name":"Westlake","area":0.34},"geometry":{"type":"Point","coordinates":[-122.34159,47.63257]}},{"type":"Feature","properties":{"name":"Eastlake","area":0.69},"geometry":{"type":"Point","coordinates":[-122.32532,47.6436]}},{"type":"Feature","properties":{"name":"South Lake Union","area":1.49},"geometry":{"type":"Point","coordinates":[-122.33676,47.62805]}},{"type":"Feature","properties":{"name":"Lawton Park","area":5.1},"geometry":{"type":"Point","coordinates":[-122.40895,47.6592]}},{"type":"Feature","properties":{"name":"Briarcliff","area":2.46},"geometry":{"type":"Point","coordinates":[-122.40679,47.64227]}},{"type":"Feature","properties":{"name":"Southeast Magnolia","area":1.71},"geometry":{"type":"Point","coordinates":[-122.39148,47.63935]}},{"type":"Feature","properties":{"name":"Madrona","area":1.28},"geometry":{"type":"Point","coordinates":[-122.28812,47.6127]}},{"type":"Feature","properties":{"name":"Denny-Blaine","area":1.26},"geometry":{"type":"Point","coordinates":[-122.28763,47.62429]}},{"type":"Feature","properties":{"name":"Minor","area":1.66},"geometry":{"type":"Point","coordinates":[-122.30956,47.61041]}},{"type":"Feature","properties":{"name":"Leschi","area":1.68},"geometry":{"type":"Point","coordinates":[-122.29044,47.60015]}},{"type":"Feature","properties":{"name":"Mann","area":1.03},"geometry":{"type":"Point","coordinates":[-122.29943,47.61249]}},{"type":"Feature","properties":{"name":"Atlantic","area":1.91},"geometry":{"type":"Point","coordinates":[-122.30623,47.58895]}},{"type":"Feature","properties":{"name":"Pike-Market","area":0.22},"geometry":{"type":"Point","coordinates":[-122.34223,47.60966]}},{"type":"Feature","properties":{"name":"Belltown","area":1.39},"geometry":{"type":"Point","coordinates":[-122.34459,47.61427]}},{"type":"Feature","properties":{"name":"International District","area":0.57},"geometry":{"type":"Point","coordinates":[-122.32027,47.59875]}},{"type":"Feature","properties":{"name":"Central Business District","area":0.88},"geometry":{"type":"Point","coordinates":[-122.33542,47.6092]}},{"type":"Feature","properties":{"name":"First Hill","area":0.88},"geometry":{"type":"Point","coordinates":[-122.32396,47.60926]}},{"type":"Feature","properties":{"name":"Yesler Terrace","area":0.5},"geometry":{"type":"Point","coordinates":[-122.32209,47.60347]}},{"type":"Feature","properties":{"name":"Pioneer Square","area":1.06},"geometry":{"type":"Point","coordinates":[-122.33361,47.59876]}},{"type":"Feature","properties":{"name":"Interbay","area":3.1},"geometry":{"type":"Point","coordinates":[-122.37837,47.64182]}},{"type":"Feature","properties":{"name":"Industrial District","area":7.68},"geometry":{"type":"Point","coordinates":[-122.33194,47.57477]}},{"type":"Feature","properties":{"name":"Georgetown","area":4.75},"geometry":{"type":"Point","coordinates":[-122.31702,47.5402]}},{"type":"Feature","properties":{"name":"South Park","area":2.73},"geometry":{"type":"Point","coordinates":[-122.32593,47.53042]}},{"type":"Feature","properties":{"name":"Harbor Island","area":1.65},"geometry":{"type":"Point","coordinates":[-122.35189,47.57986]}},{"type":"Feature","properties":{"name":"Seaview","area":1.71},"geometry":{"type":"Point","coordinates":[-122.39552,47.5505]}},{"type":"Feature","properties":{"name":"Gatewood","area":2.11},"geometry":{"type":"Point","coordinates":[-122.38694,47.53746]}},{"type":"Feature","properties":{"name":"Arbor Heights","area":2.43},"geometry":{"type":"Point","coordinates":[-122.38105,47.50695]}},{"type":"Feature","properties":{"name":"Alki","area":2.28},"geometry":{"type":"Point","coordinates":[-122.40273,47.5758]}},{"type":"Feature","properties":{"name":"North Admiral","area":4.5},"geometry":{"type":"Point","coordinates":[-122.38731,47.58163]}},{"type":"Feature","properties":{"name":"Fairmount Park","area":1.5},"geometry":{"type":"Point","coordinates":[-122.37891,47.55815]}},{"type":"Feature","properties":{"name":"Genesee","area":1.96},"geometry":{"type":"Point","coordinates":[-122.3858,47.56481]}},{"type":"Feature","properties":{"name":"Fauntleroy","area":3.14},"geometry":{"type":"Point","coordinates":[-122.38906,47.52049]}},{"type":"Feature","properties":{"name":"North Beacon Hill","area":4.49},"geometry":{"type":"Point","coordinates":[-122.30879,47.57773]}},{"type":"Feature","properties":{"name":"Mid-Beacon Hill","area":4.87},"geometry":{"type":"Point","coordinates":[-122.30262,47.55623]}},{"type":"Feature","properties":{"name":"South Beacon Hill","area":3.56},"geometry":{"type":"Point","coordinates":[-122.29364,47.52772]}},{"type":"Feature","properties":{"name":"Holly Park","area":0.78},"geometry":{"type":"Point","coordinates":[-122.28899,47.53804]}},{"type":"Feature","properties":{"name":"Brighton","area":1.7},"geometry":{"type":"Point","coordinates":[-122.27594,47.53879]}},{"type":"Feature","properties":{"name":"Dunlap","area":1.82},"geometry":{"type":"Point","coordinates":[-122.26982,47.52531]}},{"type":"Feature","properties":{"name":"Rainier Beach","area":3.07},"geometry":{"type":"Point","coordinates":[-122.258,47.51336]}},{"type":"Feature","properties":{"name":"Rainier View","area":1.69},"geometry":{"type":"Point","coordinates":[-122.25579,47.50346]}},{"type":"Feature","properties":{"name":"Mount Baker","area":2.69},"geometry":{"type":"Point","coordinates":[-122.28881,47.57768]}},{"type":"Feature","properties":{"name":"Columbia City","area":3.47},"geometry":{"type":"Point","coordinates":[-122.28886,47.56115]}},{"type":"Feature","properties":{"name":"Highland Park","area":3.69},"geometry":{"type":"Point","coordinates":[-122.34122,47.52722]}},{"type":"Feature","properties":{"name":"North Delridge","area":2.73},"geometry":{"type":"Point","coordinates":[-122.36399,47.56259]}},{"type":"Feature","properties":{"name":"Riverview","area":3.06},"geometry":{"type":"Point","coordinates":[-122.35283,47.54691]}},{"type":"Feature","properties":{"name":"High Point","area":2.16},"geometry":{"type":"Point","coordinates":[-122.36853,47.54372]}},{"type":"Feature","properties":{"name":"South Delridge","area":1.66},"geometry":{"type":"Point","coordinates":[-122.3611,47.52675]}},{"type":"Feature","properties":{"name":"Roxhill","area":1.74},"geometry":{"type":"Point","coordinates":[-122.3707,47.52738]}},{"type":"Feature","properties":{"name":"Seward Park","area":4.06},"geometry":{"type":"Point","coordinates":[-122.26357,47.55252]}},{"type":"Feature","properties":{"name":"Wedgwood","area":2.83},"geometry":{"type":"Point","coordinates":[-122.29395,47.69029]}},{"type":"Feature","properties":{"name":"Portage Bay","area":0.41},"geometry":{"type":"Point","coordinates":[-122.31899,47.64679]}},{"type":"Feature","properties":{"name":"Montlake","area":1.83},"geometry":{"type":"Point","coordinates":[-122.30784,47.63893]}},{"type":"Feature","properties":{"name":"Madison Park","area":2.29},"geometry":{"type":"Point","coordinates":[-122.28683,47.63496]}},{"type":"Feature","properties":{"name":"Broadway","area":2.8},"geometry":{"type":"Point","coordinates":[-122.32153,47.62624]}},{"type":"Feature","properties":{"name":"Stevens","area":2.41},"geometry":{"type":"Point","coordinates":[-122.30357,47.62683]}},{"type":"Feature","properties":{"name":"Victory Heights","area":1.99},"geometry":{"type":"Point","coordinates":[-122.30393,47.70984]}},{"type":"Feature","properties":{"name":"Matthews Beach","area":2.87},"geometry":{"type":"Point","coordinates":[-122.27918,47.70399]}},{"type":"Feature","properties":{"name":"Meadowbrook","area":1.58},"geometry":{"type":"Point","coordinates":[-122.29798,47.70653]}},{"type":"Feature","properties":{"name":"Olympic Hills","area":2.39},"geometry":{"type":"Point","coordinates":[-122.30248,47.72661]}},{"type":"Feature","properties":{"name":"Cedar Park","area":1.89},"geometry":{"type":"Point","coordinates":[-122.28761,47.72463]}},{"type":"Feature","properties":{"name":"Broadview","area":4.46},"geometry":{"type":"Point","coordinates":[-122.36788,47.71962]}},{"type":"Feature","properties":{"name":"Bitter Lake","area":2.57},"geometry":{"type":"Point","coordinates":[-122.35015,47.71958]}},{"type":"Feature","properties":{"name":"Haller Lake","area":4.37},"geometry":{"type":"Point","coordinates":[-122.33467,47.71958]}},{"type":"Feature","properties":{"name":"Pinehurst","area":2.73},"geometry":{"type":"Point","coordinates":[-122.3212,47.72129]}},{"type":"Feature","properties":{"name":"North Beach/Blue Ridge","area":2.88},"geometry":{"type":"Point","coordinates":[-122.3817,47.70086]}},{"type":"Feature","properties":{"name":"North College Park","area":2.01},"geometry":{"type":"Point","coordinates":[-122.33688,47.69938]}},{"type":"Feature","properties":{"name":"Maple Leaf","area":3.19},"geometry":{"type":"Point","coordinates":[-122.31665,47.69936]}},{"type":"Feature","properties":{"name":"Crown Hill","area":1.47},"geometry":{"type":"Point","coordinates":[-122.37463,47.69789]}},{"type":"Feature","properties":{"name":"Greenwood","area":3.9},"geometry":{"type":"Point","coordinates":[-122.35526,47.69421]}},{"type":"Feature","properties":{"name":"Sunset Hill","area":2.25},"geometry":{"type":"Point","coordinates":[-122.40139,47.68258]}}]}