{"type":"Feature","properties":{},"geometry":{"type":"MultiPolygon","coordinates":[[[[-122.43594,47.66195],[-122.42651,47.6584],[-122.42603,47.65778],[-122.42478,47.65699],[-122.42355,47.65554],[-122.42061,47.65342],[-122.42013,47.65255],[-122.41895,47.65136],[-122.41867,47.65036],[-122.41744,47.64879],[-122.4174,47.6457],[-122.41773,47.64495],[-122.41732,47.6432],[-122.41621,47.64157],[-122.41498,47.64037],[-122.41283,47.63915],[-122.41241,47.63859],[-122.4117,47.63838],[-122.40647,47.63523],[-122.40212,47.63352],[-122.40192,47.63326],[-122.39898,47.63225],[-122.39577,47.63149],[-122.39545,47.63082],[-122.39489,47.63046],[-122.39094,47.63005],[-122.38917,47.63067],[-122.38809,47.63135],[-122.38548,47.63158],[-122.38534,47.633],[-122.38479,47.63323],[-122.38387,47.63318],[-122.38369,47.63296],[-122.38365,47.6264],[-122.38215,47.62641],[-122.38218,47.63157],[-122.38195,47.63179],[-122.38119,47.63183],[-122.38078,47.63158],[-122.38075,47.62644],[-122.37951,47.62638],[-122.3795,47.63192],[-122.37932,47.63218],[-122.3798,47.63279],[-122.37955,47.63304],[-122.37906,47.63302],[-122.37847,47.6326],[-122.37798,47.63148],[-122.37784,47.62678],[-122.3739,47.62619],[-122.36877,47.62419],[-122.36457,47.62094],[-122.36315,47.62044],[-122.36155,47.61892],[-122.36058,47.61859],[-122.36041,47.61808],[-122.35994,47.61771],[-122.35784,47.61677],[-122.35587,47.61529],[-122.35611,47.61499],[-122.35731,47.61488],[-122.35667,47.61452],[-122.35575,47.61444],[-122.3557,47.61389],[-122.35501,47.61356],[-122.35276,47.61349],[-122.35253,47.61318],[-122.35313,47.61257],[-122.35251,47.61225],[-122.35031,47.6122],[-122.3499,47.61188],[-122.35011,47.61147],[-122.34878,47.61068],[-122.34726,47.61039],[-122.34552,47.60934],[-122.3456,47.60896],[-122.34639,47.6089],[-122.34597,47.60863],[-122.34361,47.60823],[-122.34359,47.6077],[-122.34422,47.60751],[-122.34185,47.60674],[-122.34193,47.60636],[-122.34276,47.60629],[-122.34254,47.60589],[-122.34217,47.60577],[-122.34194,47.60527],[-122.34052,47.60514],[-122.34047,47.60432],[-122.34009,47.60391],[-122.33923,47.6037],[-122.33985,47.60292],[-122.33969,47.60272],[-122.33982,47.6025],[-122.33945,47.60233],[-122.33923,47.60175],[-122.33684,47.60156],[-122.3364,47.60128],[-122.33638,47.60092],[-122.33706,47.6006],[-122.33964,47.60036],[-122.3396,47.59972],[-122.33762,47.59971],[-122.3373,47.5994],[-122.33767,47.59908],[-122.34008,47.59902],[-122.34298,47.59129],[-122.34285,47.59066],[-122.33857,47.59065],[-122.33825,47.59031],[-122.33865,47.59004],[-122.3429,47.59003],[-122.3427,47.58944],[-122.34295,47.58886],[-122.34259,47.58841],[-122.34257,47.58791],[-122.34297,47.58739],[-122.34253,47.58596],[-122.34261,47.58563],[-122.34299,47.58547],[-122.34299,47.58041],[-122.34033,47.5786],[-122.3402,47.57824],[-122.34078,47.57803],[-122.34236,47.57895],[-122.34255,47.57816],[-122.34298,47.57798],[-122.34301,47.57388],[-122.34369,47.57358],[-122.34473,47.57092],[-122.34522,47.57059],[-122.34572,47.56935],[-122.34542,47.56896],[-122.34577,47.568],[-122.3456,47.56748],[-122.3462,47.56469],[-122.34469,47.56235],[-122.34454,47.56191],[-122.34474,47.56133],[-122.34417,47.56051],[-122.34419,47.55998],[-122.34264,47.55708],[-122.3403,47.55704],[-122.33958,47.5563],[-122.33993,47.55592],[-122.34177,47.5561],[-122.34189,47.55562],[-122.34147,47.55484],[-122.34075,47.55456],[-122.34071,47.55378],[-122.34008,47.55214],[-122.33849,47.54969],[-122.3382,47.54845],[-122.33693,47.54642],[-122.33636,47.54658],[-122.33549,47.54738],[-122.3349,47.54724],[-122.33585,47.54568],[-122.33625,47.54452],[-122.33538,47.5436],[-122.33413,47.54295],[-122.33285,47.54273],[-122.3319,47.54303],[-122.33019,47.54299],[-122.33001,47.54264],[-122.33017,47.54241],[-122.33247,47.54231],[-122.33258,47.54186],[-122.32949,47.53967],[-122.32815,47.53945],[-122.32822,47.53877],[-122.32725,47.53829],[-122.32692,47.53783],[-122.32412,47.53596],[-122.32188,47.53474],[-122.32082,47.53471],[-122.32066,47.53448],[-122.32092,47.53401],[-122.31691,47.53181],[-122.30514,47.53162],[-122.30435,47.53076],[-122.30152,47.52951],[-122.30062,47.52848],[-122.29961,47.52559],[-122.30007,47.525],[-122.30127,47.52446],[-122.29138,47.52416],[-122.29132,47.51014],[-122.27849,47.50985],[-122.27819,47.50964],[-122.27815,47.50813],[-122.27544,47.5072],[-122.2754,47.50949],[-122.27522,47.50971],[-122.27017,47.50958],[-122.2702,47.50183],[-122.27077,47.50158],[-122.27022,47.49999],[-122.27028,47.49551],[-122.25963,47.49562],[-122.25949,47.50227],[-122.25919,47.50253],[-122.25088,47.50287],[-122.25041,47.50234],[-122.24949,47.49934],[-122.24086,47.49924],[-122.24081,47.50288],[-122.24544,47.50312],[-122.24545,47.50389],[-122.24657,47.50503],[-122.24737,47.50947],[-122.24699,47.50967],[-122.23604,47.50956],[-122.23803,47.51063],[-122.24019,47.5113],[-122.245,47.51172],[-122.24578,47.51193],[-122.24617,47.51235],[-122.24701,47.51233],[-122.24737,47.51264],[-122.2494,47.51277],[-122.2522,47.51517],[-122.25398,47.51632],[-122.25447,47.51766],[-122.25635,47.51907],[-122.26025,47.52082],[-122.26078,47.52072],[-122.26157,47.52114],[-122.26241,47.52104],[-122.26302,47.52159],[-122.26318,47.52244],[-122.26308,47.52314],[-122.26223,47.524],[-122.26167,47.52401],[-122.26132,47.52369],[-122.26046,47.52372],[-122.25991,47.52507],[-122.26031,47.52802],[-122.26167,47.52925],[-122.26265,47.52927],[-122.26312,47.52969],[-122.26296,47.53093],[-122.26319,47.53221],[-122.26411,47.53383],[-122.26348,47.53554],[-122.26195,47.53765],[-122.26171,47.53885],[-122.26201,47.54003],[-122.26164,47.54055],[-122.25921,47.54231],[-122.2577,47.54431],[-122.25722,47.54518],[-122.25801,47.54696],[-122.25732,47.54842],[-122.25599,47.54882],[-122.25221,47.54881],[-122.25001,47.54938],[-122.24927,47.54977],[-122.24693,47.552],[-122.24639,47.55374],[-122.24775,47.55669],[-122.24785,47.55847],[-122.24996,47.561],[-122.25029,47.56185],[-122.25084,47.56221],[-122.25194,47.56226],[-122.25505,47.5617],[-122.25549,47.55981],[-122.25471,47.55706],[-122.25488,47.55525],[-122.25512,47.55482],[-122.25427,47.55451],[-122.25417,47.55363],[-122.255,47.55295],[-122.2573,47.55206],[-122.25769,47.55143],[-122.25955,47.5515],[-122.25999,47.55305],[-122.26057,47.55383],[-122.26063,47.55466],[-122.26156,47.55612],[-122.26148,47.55736],[-122.26227,47.55828],[-122.26344,47.55912],[-122.26358,47.55982],[-122.26434,47.56094],[-122.2646,47.5618],[-122.26552,47.56159],[-122.2668,47.56188],[-122.26817,47.56339],[-122.26789,47.56429],[-122.2673,47.56436],[-122.26682,47.56477],[-122.267,47.56546],[-122.2677,47.56574],[-122.26807,47.56642],[-122.26996,47.56799],[-122.27209,47.568],[-122.27462,47.56989],[-122.27652,47.57061],[-122.27721,47.57172],[-122.27753,47.57174],[-122.27825,47.57037],[-122.27886,47.57032],[-122.27973,47.57077],[-122.28053,47.57248],[-122.28045,47.57345],[-122.28086,47.57438],[-122.28226,47.57622],[-122.28393,47.58011],[-122.28534,47.58195],[-122.28722,47.58319],[-122.28758,47.58374],[-122.28757,47.58445],[-122.28728,47.58495],[-122.28576,47.58619],[-122.28578,47.58691],[-122.28512,47.58867],[-122.28568,47.59024],[-122.28626,47.59106],[-122.28619,47.59135],[-122.28723,47.59291],[-122.2868,47.59558],[-122.2865,47.59584],[-122.28651,47.59653],[-122.28609,47.59733],[-122.28626,47.59825],[-122.28564,47.59849],[-122.28591,47.59892],[-122.28513,47.59997],[-122.28526,47.6003],[-122.28499,47.60122],[-122.28396,47.60179],[-122.28423,47.60234],[-122.28392,47.60286],[-122.2839,47.60344],[-122.28315,47.60448],[-122.28282,47.6082],[-122.28194,47.61015],[-122.28197,47.61135],[-122.28118,47.61228],[-122.28106,47.61383],[-122.28127,47.61451],[-122.28097,47.6151],[-122.28054,47.61533],[-122.28059,47.61569],[-122.28001,47.61675],[-122.28032,47.61851],[-122.27973,47.62065],[-122.28031,47.62087],[-122.28083,47.62166],[-122.28243,47.62264],[-122.28264,47.62431],[-122.28156,47.62601],[-122.27904,47.6279],[-122.27875,47.62853],[-122.27833,47.62863],[-122.27867,47.62925],[-122.27805,47.63004],[-122.277,47.63055],[-122.27641,47.63305],[-122.27582,47.63345],[-122.27604,47.63441],[-122.27642,47.63484],[-122.27639,47.63651],[-122.27609,47.63728],[-122.27542,47.63789],[-122.2758,47.63838],[-122.27652,47.63863],[-122.27653,47.63955],[-122.27623,47.63976],[-122.27526,47.63978],[-122.27528,47.63999],[-122.27609,47.64031],[-122.27522,47.64067],[-122.27611,47.64089],[-122.27683,47.64137],[-122.2773,47.64217],[-122.27813,47.64278],[-122.28128,47.64269],[-122.28192,47.64239],[-122.28466,47.64264],[-122.28543,47.64305],[-122.2857,47.64371],[-122.28674,47.6439],[-122.28781,47.64289],[-122.28929,47.6428],[-122.29011,47.64209],[-122.29202,47.64211],[-122.29379,47.6415],[-122.29413,47.64206],[-122.29498,47.64258],[-122.29456,47.64308],[-122.29483,47.6449],[-122.29604,47.64473],[-122.29635,47.64346],[-122.29751,47.64335],[-122.29823,47.64387],[-122.29799,47.64414],[-122.29735,47.6441],[-122.29749,47.64452],[-122.29856,47.6448],[-122.29942,47.64602],[-122.3005,47.64662],[-122.30109,47.64724],[-122.30085,47.6475],[-122.29955,47.64768],[-122.29962,47.64814],[-122.29911,47.64884],[-122.2985,47.65046],[-122.29794,47.65071],[-122.29777,47.65176],[-122.29929,47.65246],[-122.29925,47.65308],[-122.29783,47.65336],[-122.29779,47.65373],[-122.29743,47.65397],[-122.29614,47.65368],[-122.29249,47.65406],[-122.29097,47.65395],[-122.29058,47.65423],[-122.29028,47.65494],[-122.28939,47.65536],[-122.28852,47.6554],[-122.28752,47.65609],[-122.28693,47.65591],[-122.28648,47.65485],[-122.28361,47.65471],[-122.28226,47.6538],[-122.28118,47.65339],[-122.28136,47.65262],[-122.2811,47.65196],[-122.27912,47.65074],[-122.27889,47.64989],[-122.27827,47.64923],[-122.27846,47.64878],[-122.27725,47.64802],[-122.27613,47.64821],[-122.27546,47.64873],[-122.27518,47.64947],[-122.27528,47.65026],[-122.27613,47.65097],[-122.27648,47.65205],[-122.27629,47.65252],[-122.27556,47.65314],[-122.27366,47.65412],[-122.27191,47.65587],[-122.26965,47.65695],[-122.26855,47.65807],[-122.26761,47.66071],[-122.26725,47.66295],[-122.26728,47.66442],[-122.26585,47.66507],[-122.26173,47.66595],[-122.25942,47.66699],[-122.25726,47.66854],[-122.25645,47.66887],[-122.25639,47.66916],[-122.25511,47.6702],[-122.25288,47.67167],[-122.25223,47.67221],[-122.25165,47.67375],[-122.25045,47.67445],[-122.24969,47.67643],[-122.24982,47.67687],[-122.24934,47.67711],[-122.2482,47.67863],[-122.24768,47.67897],[-122.24726,47.67994],[-122.24608,47.68072],[-122.24565,47.68188],[-122.24581,47.68321],[-122.24786,47.68542],[-122.25519,47.68779],[-122.25574,47.68815],[-122.25927,47.68759],[-122.26293,47.68776],[-122.26455,47.68908],[-122.26464,47.68975],[-122.26505,47.69004],[-122.26516,47.68966],[-122.26557,47.68954],[-122.26634,47.68987],[-122.26736,47.69083],[-122.26799,47.69208],[-122.27172,47.6942],[-122.27183,47.69472],[-122.27141,47.69505],[-122.27265,47.69688],[-122.27244,47.69852],[-122.27298,47.70141],[-122.27331,47.70245],[-122.274,47.70336],[-122.27479,47.70518],[-122.2749,47.70721],[-122.27633,47.71082],[-122.27642,47.71227],[-122.27719,47.71465],[-122.27878,47.71906],[-122.27924,47.71959],[-122.28037,47.71993],[-122.28075,47.72075],[-122.28088,47.72294],[-122.28,47.72545],[-122.28033,47.72661],[-122.28194,47.72959],[-122.28131,47.73106],[-122.28154,47.7316],[-122.28389,47.73322],[-122.28421,47.73374],[-122.33427,47.73413],[-122.3746,47.73416],[-122.37364,47.73186],[-122.37317,47.72978],[-122.37342,47.72663],[-122.37379,47.72569],[-122.37548,47.72341],[-122.37606,47.72203],[-122.37619,47.72081],[-122.3757,47.71868],[-122.37592,47.71736],[-122.37726,47.71506],[-122.37992,47.71227],[-122.37978,47.71192],[-122.38002,47.70985],[-122.38054,47.7085],[-122.38417,47.70552],[-122.38792,47.70326],[-122.40112,47.69828],[-122.40297,47.69709],[-122.40378,47.69603],[-122.40416,47.69494],[-122.4059,47.69351],[-122.40569,47.69267],[-122.40416,47.69129],[-122.40322,47.68982],[-122.40382,47.68725],[-122.40348,47.68691],[-122.40381,47.68664],[-122.40385,47.68585],[-122.40328,47.68547],[-122.40358,47.68339],[-122.40522,47.68068],[-122.40594,47.68024],[-122.40767,47.67718],[-122.40837,47.67703],[-122.40861,47.67669],[-122.40977,47.67664],[-122.40984,47.67587],[-122.40836,47.67495],[-122.40835,47.67458],[-122.40865,47.67436],[-122.40827,47.67418],[-122.40828,47.67383],[-122.40784,47.67365],[-122.40761,47.67297],[-122.40712,47.67289],[-122.40692,47.6724],[-122.40626,47.67221],[-122.40581,47.6707],[-122.40509,47.67012],[-122.40434,47.66882],[-122.40231,47.66767],[-122.39971,47.6665],[-122.39361,47.66493],[-122.39109,47.66464],[-122.39361,47.665],[-122.39551,47.66551],[-122.39569,47.66579],[-122.39531,47.66626],[-122.39375,47.66655],[-122.39373,47.66718],[-122.3934,47.66739],[-122.39144,47.66709],[-122.39063,47.66761],[-122.38807,47.66701],[-122.38784,47.66683],[-122.38788,47.66645],[-122.38473,47.66427],[-122.38405,47.66448],[-122.38293,47.66373],[-122.38222,47.66373],[-122.38211,47.66348],[-122.38234,47.66306],[-122.38011,47.66133],[-122.37788,47.6607],[-122.37747,47.66093],[-122.37573,47.66093],[-122.37538,47.6606],[-122.37245,47.66061],[-122.37136,47.65977],[-122.37088,47.6597],[-122.36825,47.65757],[-122.36737,47.65722],[-122.36678,47.65652],[-122.35856,47.65209],[-122.34975,47.64796],[-122.3483,47.64747],[-122.34762,47.64752],[-122.34709,47.64774],[-122.34699,47.64841],[-122.3466,47.64861],[-122.34518,47.64821],[-122.34427,47.64826],[-122.34347,47.6475],[-122.34317,47.64751],[-122.34294,47.64796],[-122.34249,47.64798],[-122.34161,47.64772],[-122.34109,47.64706],[-122.34033,47.64695],[-122.34022,47.64648],[-122.3397,47.64664],[-122.33811,47.6461],[-122.33731,47.64516],[-122.33579,47.64446],[-122.33407,47.64445],[-122.33323,47.64482],[-122.33271,47.6461],[-122.33281,47.64681],[-122.3311,47.64813],[-122.33149,47.6492],[-122.33057,47.64952],[-122.33069,47.65014],[-122.33028,47.65064],[-122.32949,47.65101],[-122.32923,47.6514],[-122.32853,47.65133],[-122.32681,47.65314],[-122.32199,47.65377],[-122.32104,47.65371],[-122.321,47.65414],[-122.3207,47.65429],[-122.31836,47.65354],[-122.31777,47.65304],[-122.31732,47.65223],[-122.31644,47.65196],[-122.31641,47.65162],[-122.31553,47.65174],[-122.31404,47.65132],[-122.31315,47.65034],[-122.31348,47.64986],[-122.31268,47.6494],[-122.31193,47.64945],[-122.31001,47.6481],[-122.30696,47.6474],[-122.30726,47.64704],[-122.30906,47.64703],[-122.30949,47.64686],[-122.30983,47.64634],[-122.30973,47.64554],[-122.30869,47.64459],[-122.30809,47.64446],[-122.30734,47.64368],[-122.3074,47.64342],[-122.30792,47.64315],[-122.31001,47.64298],[-122.31037,47.64249],[-122.31105,47.6423],[-122.31116,47.64191],[-122.31176,47.64164],[-122.31328,47.64191],[-122.31447,47.64231],[-122.31631,47.64398],[-122.31646,47.64464],[-122.31614,47.64576],[-122.31626,47.64726],[-122.31691,47.64817],[-122.32068,47.65205],[-122.32134,47.65235],[-122.32308,47.65219],[-122.32328,47.65149],[-122.32403,47.65131],[-122.32398,47.65043],[-122.32524,47.64946],[-122.32541,47.6491],[-122.32514,47.64841],[-122.32546,47.64783],[-122.32644,47.64685],[-122.32721,47.64685],[-122.32792,47.64576],[-122.3275,47.64551],[-122.3278,47.64501],[-122.3274,47.64451],[-122.32743,47.64391],[-122.32778,47.6435],[-122.32914,47.64308],[-122.32971,47.64223],[-122.32958,47.64119],[-122.32978,47.64012],[-122.32946,47.6364],[-122.32844,47.63577],[-122.32797,47.6348],[-122.32712,47.63444],[-122.32707,47.63356],[-122.32745,47.63136],[-122.32822,47.63079],[-122.32911,47.6311],[-122.32958,47.63098],[-122.33045,47.63006],[-122.33194,47.62935],[-122.33207,47.62832],[-122.33237,47.62806],[-122.33322,47.62813],[-122.33363,47.62853],[-122.33417,47.62833],[-122.33417,47.62729],[-122.33446,47.62698],[-122.33592,47.62656],[-122.33626,47.62686],[-122.33614,47.62803],[-122.33806,47.62789],[-122.33812,47.62742],[-122.3385,47.62729],[-122.339,47.62753],[-122.33967,47.6284],[-122.33938,47.62881],[-122.33954,47.6296],[-122.33931,47.63009],[-122.34014,47.63024],[-122.34023,47.63087],[-122.3405,47.63114],[-122.34015,47.63305],[-122.33941,47.63339],[-122.33942,47.63457],[-122.33979,47.63482],[-122.33955,47.63595],[-122.33987,47.63646],[-122.33973,47.63758],[-122.34219,47.64121],[-122.34218,47.64173],[-122.34289,47.64219],[-122.34246,47.64279],[-122.34258,47.64324],[-122.3434,47.64325],[-122.34494,47.64466],[-122.3484,47.64589],[-122.34919,47.64686],[-122.35005,47.64742],[-122.35573,47.64984],[-122.36121,47.65253],[-122.36266,47.6525],[-122.36289,47.65271],[-122.36279,47.65301],[-122.36323,47.65311],[-122.36392,47.65278],[-122.36543,47.65306],[-122.36571,47.65331],[-122.36569,47.65386],[-122.36611,47.65417],[-122.3657,47.65477],[-122.36626,47.65479],[-122.36637,47.65514],[-122.36704,47.65442],[-122.36754,47.65443],[-122.36903,47.6553],[-122.36874,47.65577],[-122.36917,47.65576],[-122.36938,47.65602],[-122.36896,47.65646],[-122.37124,47.6577],[-122.3737,47.65779],[-122.37396,47.65718],[-122.37487,47.65713],[-122.37523,47.6573],[-122.37527,47.65773],[-122.37606,47.65792],[-122.3761,47.65637],[-122.37633,47.65613],[-122.37704,47.65626],[-122.37715,47.65686],[-122.37809,47.65685],[-122.37811,47.65609],[-122.37842,47.65588],[-122.37924,47.65589],[-122.37952,47.65614],[-122.37998,47.65588],[-122.38119,47.65588],[-122.38217,47.65614],[-122.38236,47.65637],[-122.38222,47.65892],[-122.37847,47.65887],[-122.37844,47.65917],[-122.38218,47.65923],[-122.38351,47.65987],[-122.3839,47.66037],[-122.38385,47.66062],[-122.38488,47.6614],[-122.3864,47.66177],[-122.38727,47.66213],[-122.3877,47.66257],[-122.3901,47.66332],[-122.39493,47.66325],[-122.39726,47.66463],[-122.39726,47.66504],[-122.39782,47.66485],[-122.399,47.66508],[-122.40193,47.66622],[-122.40494,47.66623],[-122.40683,47.66656],[-122.40817,47.66752],[-122.40782,47.66949],[-122.40896,47.67151],[-122.41145,47.67148],[-122.41582,47.67052],[-122.41854,47.66901],[-122.42269,47.66748],[-122.4252,47.66519],[-122.43114,47.66277],[-122.43439,47.66237],[-122.43594,47.66195]],[[-122.24883,47.50596],[-122.24846,47.50625],[-122.24798,47.50604],[-122.24799,47.50326],[-122.24831,47.50299],[-122.24881,47.50321],[-122.24883,47.50596]],[[-122.29569,47.64174],[-122.2962,47.64172],[-122.29635,47.64201],[-122.29569,47.64229],[-122.29546,47.64204],[-122.29569,47.64174]],[[-122.31895,47.53565],[-122.31943,47.53556],[-122.31967,47.53581],[-122.31929,47.53648],[-122.31896,47.53661],[-122.31855,47.53635],[-122.31895,47.53565]]],[[[-122.42079,47.57628],[-122.41932,47.57504],[-122.41659,47.57359],[-122.4148,47.57292],[-122.41166,47.57106],[-122.41181,47.57074],[-122.41267,47.57057],[-122.41066,47.57022],[-122.40978,47.56907],[-122.41005,47.56784],[-122.40969,47.56687],[-122.40875,47.56574],[-122.40741,47.56484],[-122.40643,47.56272],[-122.40443,47.56116],[-122.40294,47.55881],[-122.4001,47.55555],[-122.39989,47.55401],[-122.39909,47.55297],[-122.39872,47.55114],[-122.39832,47.55048],[-122.39831,47.54947],[-122.39874,47.54792],[-122.39939,47.54671],[-122.39948,47.54599],[-122.39722,47.5422],[-122.3971,47.54126],[-122.3975,47.53997],[-122.39737,47.53957],[-122.39676,47.53902],[-122.39675,47.53778],[-122.39598,47.53639],[-122.39586,47.53557],[-122.3964,47.53451],[-122.39739,47.53347],[-122.4012,47.53082],[-122.4015,47.5303],[-122.40066,47.52935],[-122.39639,47.52712],[-122.39508,47.52617],[-122.39418,47.52528],[-122.39386,47.52444],[-122.39424,47.52147],[-122.39469,47.52067],[-122.39594,47.51953],[-122.39883,47.51755],[-122.39917,47.51699],[-122.39656,47.51539],[-122.39535,47.51334],[-122.39459,47.51126],[-122.39345,47.51035],[-122.39044,47.50652],[-122.38776,47.50395],[-122.38687,47.50249],[-122.37845,47.49856],[-122.37775,47.49778],[-122.37652,47.49714],[-122.37575,47.49637],[-122.37494,47.49743],[-122.37388,47.50074],[-122.37063,47.50357],[-122.37038,47.50569],[-122.37086,47.50813],[-122.37133,47.51716],[-122.37116,47.51739],[-122.36084,47.51735],[-122.36053,47.51714],[-122.36048,47.51552],[-122.3585,47.51553],[-122.35851,47.51713],[-122.35819,47.51735],[-122.33778,47.51725],[-122.33747,47.51701],[-122.33702,47.51399],[-122.33426,47.51402],[-122.33407,47.51449],[-122.33121,47.51512],[-122.33047,47.51466],[-122.33006,47.51399],[-122.32732,47.51401],[-122.32861,47.51649],[-122.32954,47.51738],[-122.3299,47.51955],[-122.33064,47.52056],[-122.33049,47.52085],[-122.32605,47.52086],[-122.32587,47.52063],[-122.32586,47.51869],[-122.31754,47.51866],[-122.31747,47.52191],[-122.3173,47.52213],[-122.30966,47.52217],[-122.30972,47.52451],[-122.31169,47.52654],[-122.3174,47.52818],[-122.31755,47.52942],[-122.31848,47.52965],[-122.31854,47.53102],[-122.31917,47.53144],[-122.31985,47.53152],[-122.32032,47.53211],[-122.32168,47.53286],[-122.32212,47.53335],[-122.32369,47.534],[-122.32471,47.53477],[-122.32528,47.53475],[-122.32863,47.53742],[-122.33,47.53801],[-122.33127,47.53902],[-122.332,47.53916],[-122.33353,47.54077],[-122.33482,47.54114],[-122.33526,47.542],[-122.33608,47.54239],[-122.33763,47.54366],[-122.33825,47.54377],[-122.3388,47.54485],[-122.33853,47.5452],[-122.34014,47.54825],[-122.34223,47.54857],[-122.34206,47.54903],[-122.34165,47.54923],[-122.3414,47.55003],[-122.34097,47.55022],[-122.34381,47.55522],[-122.34602,47.55499],[-122.34755,47.55529],[-122.3487,47.55597],[-122.34973,47.55698],[-122.35042,47.55794],[-122.35021,47.55976],[-122.35046,47.56088],[-122.35001,47.56122],[-122.35006,47.56174],[-122.34931,47.56208],[-122.34928,47.56234],[-122.34814,47.56338],[-122.34895,47.56509],[-122.34948,47.56522],[-122.35021,47.56623],[-122.35038,47.56698],[-122.35012,47.5674],[-122.35085,47.56855],[-122.35426,47.57103],[-122.35473,47.57117],[-122.35487,47.57153],[-122.35605,47.5722],[-122.35649,47.57288],[-122.35781,47.57359],[-122.35848,47.57381],[-122.36053,47.57367],[-122.36136,47.57387],[-122.36139,47.58046],[-122.36166,47.58067],[-122.36169,47.58134],[-122.36203,47.58155],[-122.36188,47.58327],[-122.36212,47.58414],[-122.36282,47.58439],[-122.36584,47.58443],[-122.36614,47.58498],[-122.36719,47.58472],[-122.36802,47.58511],[-122.36848,47.58493],[-122.36887,47.58508],[-122.36901,47.58392],[-122.36997,47.58354],[-122.3702,47.58319],[-122.37224,47.58338],[-122.37526,47.58566],[-122.37636,47.58678],[-122.37786,47.58728],[-122.3793,47.58853],[-122.37998,47.58869],[-122.3803,47.58961],[-122.38133,47.58987],[-122.38181,47.59112],[-122.38183,47.59244],[-122.38231,47.59278],[-122.382,47.59316],[-122.38292,47.59408],[-122.38343,47.5941],[-122.38435,47.59489],[-122.38514,47.5952],[-122.38696,47.59525],[-122.38742,47.59548],[-122.39058,47.59361],[-122.39292,47.59081],[-122.4011,47.58374],[-122.41048,47.57955],[-122.4192,47.57713],[-122.42079,47.57628]]],[[[-122.3584,47.57685],[-122.35836,47.57542],[-122.35667,47.57416],[-122.35623,47.57411],[-122.35498,47.57328],[-122.35361,47.57195],[-122.35187,47.57076],[-122.35133,47.57049],[-122.35045,47.5705],[-122.34884,47.56935],[-122.3466,47.5693],[-122.34612,47.57051],[-122.34631,47.57118],[-122.34538,47.57343],[-122.34601,47.57393],[-122.34601,47.59048],[-122.34642,47.59048],[-122.34665,47.59015],[-122.34943,47.58907],[-122.34986,47.58923],[-122.35001,47.58998],[-122.35002,47.58796],[-122.35094,47.58749],[-122.35481,47.58686],[-122.35582,47.58707],[-122.35837,47.58661],[-122.35837,47.58484],[-122.35678,47.585],[-122.35632,47.58438],[-122.35655,47.58412],[-122.35835,47.58381],[-122.3579,47.58314],[-122.35787,47.58176],[-122.35838,47.58148],[-122.35819,47.58048],[-122.35837,47.58026],[-122.35838,47.57738],[-122.35818,47.57713],[-122.3584,47.57685]]]]}}